{
  "type": "FeatureCollection",
  "bbox": [
    -123.11394,
    49.221947,
    -123.002452,
    49.261145
  ],
  "features": [
    {
      "bbox": [
        -123.11394,
        49.221947,
        -123.002452,
        49.261145
      ],
      "type": "Feature",
      "properties": {
        "way_points": [
          0,
          233
        ],
        "summary": {
          "distance": 11661.4,
          "duration": 1303.3
        }
      },
      "geometry": {
        "type": "LineString",
        "coordinates": [
          [
            -123.003794,
            49.225946
          ],
          [
            -123.003784,
            49.225942
          ],
          [
            -123.002974,
            49.22557
          ],
          [
            -123.002538,
            49.22537
          ],
          [
            -123.002452,
            49.225438
          ],
          [
            -123.003707,
            49.226009
          ],
          [
            -123.003937,
            49.226114
          ],
          [
            -123.0041,
            49.226188
          ],
          [
            -123.004448,
            49.226346
          ],
          [
            -123.004547,
            49.22639
          ],
          [
            -123.004587,
            49.226408
          ],
          [
            -123.004908,
            49.226554
          ],
          [
            -123.005589,
            49.226826
          ],
          [
            -123.005707,
            49.226871
          ],
          [
            -123.006362,
            49.227158
          ],
          [
            -123.007488,
            49.227645
          ],
          [
            -123.007602,
            49.227694
          ],
          [
            -123.007674,
            49.227638
          ],
          [
            -123.008043,
            49.227325
          ],
          [
            -123.009223,
            49.226174
          ],
          [
            -123.009241,
            49.226095
          ],
          [
            -123.009825,
            49.225544
          ],
          [
            -123.01084,
            49.224595
          ],
          [
            -123.011371,
            49.224093
          ],
          [
            -123.012088,
            49.223413
          ],
          [
            -123.012193,
            49.223378
          ],
          [
            -123.012345,
            49.223219
          ],
          [
            -123.012531,
            49.222954
          ],
          [
            -123.012618,
            49.222746
          ],
          [
            -123.01265,
            49.22251
          ],
          [
            -123.01265,
            49.222048
          ],
          [
            -123.012594,
            49.22195
          ],
          [
            -123.013431,
            49.22195
          ],
          [
            -123.016186,
            49.22195
          ],
          [
            -123.018078,
            49.221949
          ],
          [
            -123.019711,
            49.221947
          ],
          [
            -123.01997,
            49.221986
          ],
          [
            -123.020647,
            49.222009
          ],
          [
            -123.020949,
            49.222018
          ],
          [
            -123.022198,
            49.222022
          ],
          [
            -123.023183,
            49.222011
          ],
          [
            -123.023601,
            49.222007
          ],
          [
            -123.023778,
            49.221974
          ],
          [
            -123.024473,
            49.221991
          ],
          [
            -123.024958,
            49.222034
          ],
          [
            -123.025383,
            49.222091
          ],
          [
            -123.025767,
            49.222167
          ],
          [
            -123.026161,
            49.222278
          ],
          [
            -123.02654,
            49.222404
          ],
          [
            -123.027038,
            49.222602
          ],
          [
            -123.027418,
            49.222806
          ],
          [
            -123.028165,
            49.223255
          ],
          [
            -123.029058,
            49.223802
          ],
          [
            -123.02934,
            49.223962
          ],
          [
            -123.029581,
            49.224074
          ],
          [
            -123.030118,
            49.224287
          ],
          [
            -123.030519,
            49.224409
          ],
          [
            -123.030876,
            49.224494
          ],
          [
            -123.031054,
            49.224531
          ],
          [
            -123.031738,
            49.22463
          ],
          [
            -123.032281,
            49.224663
          ],
          [
            -123.032933,
            49.224672
          ],
          [
            -123.033712,
            49.224681
          ],
          [
            -123.034434,
            49.22469
          ],
          [
            -123.035182,
            49.224698
          ],
          [
            -123.035893,
            49.224707
          ],
          [
            -123.036633,
            49.224716
          ],
          [
            -123.037315,
            49.22472
          ],
          [
            -123.038835,
            49.224732
          ],
          [
            -123.040252,
            49.224733
          ],
          [
            -123.040403,
            49.224734
          ],
          [
            -123.040715,
            49.224737
          ],
          [
            -123.041054,
            49.22474
          ],
          [
            -123.04196,
            49.224744
          ],
          [
            -123.042155,
            49.224745
          ],
          [
            -123.042284,
            49.224778
          ],
          [
            -123.042618,
            49.224777
          ],
          [
            -123.042734,
            49.224745
          ],
          [
            -123.042947,
            49.224746
          ],
          [
            -123.04343,
            49.224746
          ],
          [
            -123.044164,
            49.224746
          ],
          [
            -123.045601,
            49.224744
          ],
          [
            -123.045708,
            49.224744
          ],
          [
            -123.045807,
            49.224744
          ],
          [
            -123.047266,
            49.224758
          ],
          [
            -123.048795,
            49.224772
          ],
          [
            -123.050341,
            49.224792
          ],
          [
            -123.05118,
            49.224798
          ],
          [
            -123.052401,
            49.224807
          ],
          [
            -123.053069,
            49.224811
          ],
          [
            -123.053251,
            49.224813
          ],
          [
            -123.053771,
            49.224816
          ],
          [
            -123.054188,
            49.224819
          ],
          [
            -123.054462,
            49.224822
          ],
          [
            -123.054753,
            49.224825
          ],
          [
            -123.05475,
            49.225012
          ],
          [
            -123.05474,
            49.225373
          ],
          [
            -123.054737,
            49.225471
          ],
          [
            -123.054727,
            49.225947
          ],
          [
            -123.054713,
            49.226358
          ],
          [
            -123.054708,
            49.226773
          ],
          [
            -123.054697,
            49.227165
          ],
          [
            -123.054684,
            49.227578
          ],
          [
            -123.054671,
            49.228023
          ],
          [
            -123.054662,
            49.228483
          ],
          [
            -123.05467,
            49.22864
          ],
          [
            -123.054738,
            49.228926
          ],
          [
            -123.054814,
            49.229118
          ],
          [
            -123.054964,
            49.229388
          ],
          [
            -123.055108,
            49.229708
          ],
          [
            -123.05517,
            49.229937
          ],
          [
            -123.055194,
            49.230142
          ],
          [
            -123.055209,
            49.230873
          ],
          [
            -123.055239,
            49.231793
          ],
          [
            -123.055246,
            49.232108
          ],
          [
            -123.055302,
            49.232464
          ],
          [
            -123.05541,
            49.232836
          ],
          [
            -123.055356,
            49.232916
          ],
          [
            -123.055422,
            49.23337
          ],
          [
            -123.055439,
            49.233813
          ],
          [
            -123.055499,
            49.233871
          ],
          [
            -123.055496,
            49.234369
          ],
          [
            -123.055493,
            49.23487
          ],
          [
            -123.055487,
            49.235377
          ],
          [
            -123.05548,
            49.235884
          ],
          [
            -123.055468,
            49.237392
          ],
          [
            -123.055463,
            49.238895
          ],
          [
            -123.055465,
            49.23933
          ],
          [
            -123.055451,
            49.239758
          ],
          [
            -123.056578,
            49.239771
          ],
          [
            -123.056845,
            49.239772
          ],
          [
            -123.05873,
            49.239782
          ],
          [
            -123.059556,
            49.239786
          ],
          [
            -123.062894,
            49.239801
          ],
          [
            -123.064153,
            49.239811
          ],
          [
            -123.064761,
            49.23993
          ],
          [
            -123.06504,
            49.240009
          ],
          [
            -123.065341,
            49.240076
          ],
          [
            -123.065336,
            49.24038
          ],
          [
            -123.065328,
            49.240687
          ],
          [
            -123.065304,
            49.24136
          ],
          [
            -123.065298,
            49.241523
          ],
          [
            -123.065256,
            49.242835
          ],
          [
            -123.065217,
            49.244031
          ],
          [
            -123.065202,
            49.244555
          ],
          [
            -123.065195,
            49.244765
          ],
          [
            -123.06518,
            49.245108
          ],
          [
            -123.065178,
            49.245259
          ],
          [
            -123.065903,
            49.245584
          ],
          [
            -123.066532,
            49.245869
          ],
          [
            -123.067109,
            49.246133
          ],
          [
            -123.067292,
            49.246159
          ],
          [
            -123.067858,
            49.246414
          ],
          [
            -123.068851,
            49.246875
          ],
          [
            -123.069943,
            49.24738
          ],
          [
            -123.071305,
            49.248014
          ],
          [
            -123.071625,
            49.248159
          ],
          [
            -123.071685,
            49.248261
          ],
          [
            -123.072146,
            49.248489
          ],
          [
            -123.07336,
            49.249028
          ],
          [
            -123.075236,
            49.249809
          ],
          [
            -123.075535,
            49.249931
          ],
          [
            -123.075834,
            49.250052
          ],
          [
            -123.075986,
            49.25013
          ],
          [
            -123.076147,
            49.250212
          ],
          [
            -123.076719,
            49.250513
          ],
          [
            -123.077805,
            49.25113
          ],
          [
            -123.078199,
            49.251332
          ],
          [
            -123.079904,
            49.25213
          ],
          [
            -123.081808,
            49.253024
          ],
          [
            -123.082178,
            49.253197
          ],
          [
            -123.082506,
            49.25335
          ],
          [
            -123.083708,
            49.25391
          ],
          [
            -123.085622,
            49.254814
          ],
          [
            -123.086057,
            49.255016
          ],
          [
            -123.088937,
            49.256362
          ],
          [
            -123.089625,
            49.256679
          ],
          [
            -123.089752,
            49.256716
          ],
          [
            -123.089892,
            49.256745
          ],
          [
            -123.090438,
            49.256999
          ],
          [
            -123.090507,
            49.257088
          ],
          [
            -123.090791,
            49.257215
          ],
          [
            -123.091177,
            49.257348
          ],
          [
            -123.091461,
            49.257418
          ],
          [
            -123.091766,
            49.257469
          ],
          [
            -123.092459,
            49.257598
          ],
          [
            -123.092786,
            49.257702
          ],
          [
            -123.093165,
            49.257876
          ],
          [
            -123.093957,
            49.25831
          ],
          [
            -123.094418,
            49.258576
          ],
          [
            -123.094643,
            49.258708
          ],
          [
            -123.094859,
            49.258838
          ],
          [
            -123.095093,
            49.258979
          ],
          [
            -123.096042,
            49.259537
          ],
          [
            -123.096451,
            49.259854
          ],
          [
            -123.09672,
            49.259905
          ],
          [
            -123.096922,
            49.259977
          ],
          [
            -123.097272,
            49.260039
          ],
          [
            -123.097499,
            49.260044
          ],
          [
            -123.097605,
            49.260063
          ],
          [
            -123.098321,
            49.260184
          ],
          [
            -123.098475,
            49.260197
          ],
          [
            -123.099147,
            49.260201
          ],
          [
            -123.099368,
            49.260201
          ],
          [
            -123.100199,
            49.2602
          ],
          [
            -123.100453,
            49.2602
          ],
          [
            -123.100998,
            49.260201
          ],
          [
            -123.101176,
            49.260204
          ],
          [
            -123.101672,
            49.260213
          ],
          [
            -123.101854,
            49.260217
          ],
          [
            -123.102129,
            49.260221
          ],
          [
            -123.103089,
            49.260239
          ],
          [
            -123.105035,
            49.260278
          ],
          [
            -123.106954,
            49.260314
          ],
          [
            -123.109131,
            49.260351
          ],
          [
            -123.109557,
            49.260345
          ],
          [
            -123.110321,
            49.260332
          ],
          [
            -123.110943,
            49.260343
          ],
          [
            -123.111054,
            49.260345
          ],
          [
            -123.111196,
            49.260347
          ],
          [
            -123.11303,
            49.260381
          ],
          [
            -123.113824,
            49.260391
          ],
          [
            -123.113822,
            49.260522
          ],
          [
            -123.113791,
            49.26059
          ],
          [
            -123.113676,
            49.260635
          ],
          [
            -123.113495,
            49.260655
          ],
          [
            -123.113427,
            49.260683
          ],
          [
            -123.113369,
            49.260731
          ],
          [
            -123.11332,
            49.260821
          ],
          [
            -123.113315,
            49.260929
          ],
          [
            -123.11336,
            49.261067
          ],
          [
            -123.113416,
            49.261112
          ],
          [
            -123.113491,
            49.261133
          ],
          [
            -123.11394,
            49.261145
          ]
        ]
      }
    },
    {
      "bbox": [
        -123.11394,
        49.22537,
        -123.002452,
        49.261145
      ],
      "type": "Feature",
      "properties": {
        "way_points": [
          0,
          221
        ],
        "summary": {
          "distance": 11615.1,
          "duration": 1313.5
        }
      },
      "geometry": {
        "type": "LineString",
        "coordinates": [
          [
            -123.003794,
            49.225946
          ],
          [
            -123.003784,
            49.225942
          ],
          [
            -123.002974,
            49.22557
          ],
          [
            -123.002538,
            49.22537
          ],
          [
            -123.002452,
            49.225438
          ],
          [
            -123.003707,
            49.226009
          ],
          [
            -123.003937,
            49.226114
          ],
          [
            -123.0041,
            49.226188
          ],
          [
            -123.004448,
            49.226346
          ],
          [
            -123.004547,
            49.22639
          ],
          [
            -123.004587,
            49.226408
          ],
          [
            -123.004908,
            49.226554
          ],
          [
            -123.005589,
            49.226826
          ],
          [
            -123.005707,
            49.226871
          ],
          [
            -123.006362,
            49.227158
          ],
          [
            -123.007488,
            49.227645
          ],
          [
            -123.007602,
            49.227694
          ],
          [
            -123.007751,
            49.227667
          ],
          [
            -123.00845,
            49.227987
          ],
          [
            -123.00888,
            49.228207
          ],
          [
            -123.008972,
            49.228247
          ],
          [
            -123.01033,
            49.228841
          ],
          [
            -123.012103,
            49.229686
          ],
          [
            -123.01234,
            49.229793
          ],
          [
            -123.012667,
            49.229836
          ],
          [
            -123.012669,
            49.230167
          ],
          [
            -123.012675,
            49.231357
          ],
          [
            -123.012675,
            49.231386
          ],
          [
            -123.012676,
            49.231627
          ],
          [
            -123.012677,
            49.231781
          ],
          [
            -123.012677,
            49.231824
          ],
          [
            -123.012678,
            49.231877
          ],
          [
            -123.01268,
            49.232246
          ],
          [
            -123.01268,
            49.232503
          ],
          [
            -123.012611,
            49.232602
          ],
          [
            -123.012567,
            49.232667
          ],
          [
            -123.012722,
            49.232711
          ],
          [
            -123.01344,
            49.232821
          ],
          [
            -123.014124,
            49.232884
          ],
          [
            -123.014237,
            49.232892
          ],
          [
            -123.0149,
            49.232916
          ],
          [
            -123.015061,
            49.232911
          ],
          [
            -123.015175,
            49.232893
          ],
          [
            -123.01526,
            49.232853
          ],
          [
            -123.015822,
            49.23284
          ],
          [
            -123.016391,
            49.232806
          ],
          [
            -123.016483,
            49.2328
          ],
          [
            -123.017047,
            49.232763
          ],
          [
            -123.018613,
            49.232649
          ],
          [
            -123.018737,
            49.23264
          ],
          [
            -123.019034,
            49.232772
          ],
          [
            -123.019376,
            49.232927
          ],
          [
            -123.019603,
            49.233027
          ],
          [
            -123.019742,
            49.233111
          ],
          [
            -123.019896,
            49.233323
          ],
          [
            -123.019929,
            49.23336
          ],
          [
            -123.019949,
            49.233411
          ],
          [
            -123.019941,
            49.233652
          ],
          [
            -123.019933,
            49.234066
          ],
          [
            -123.019929,
            49.234348
          ],
          [
            -123.019923,
            49.234812
          ],
          [
            -123.019922,
            49.234899
          ],
          [
            -123.019914,
            49.23553
          ],
          [
            -123.019894,
            49.236976
          ],
          [
            -123.019888,
            49.237391
          ],
          [
            -123.019884,
            49.237654
          ],
          [
            -123.019882,
            49.238063
          ],
          [
            -123.019873,
            49.238425
          ],
          [
            -123.01987,
            49.238785
          ],
          [
            -123.019853,
            49.239862
          ],
          [
            -123.019857,
            49.239923
          ],
          [
            -123.019855,
            49.240233
          ],
          [
            -123.019841,
            49.241319
          ],
          [
            -123.019827,
            49.242066
          ],
          [
            -123.019817,
            49.242656
          ],
          [
            -123.019817,
            49.242999
          ],
          [
            -123.019816,
            49.243642
          ],
          [
            -123.019806,
            49.244015
          ],
          [
            -123.019803,
            49.244413
          ],
          [
            -123.019801,
            49.244851
          ],
          [
            -123.019802,
            49.245218
          ],
          [
            -123.019802,
            49.245279
          ],
          [
            -123.019812,
            49.245436
          ],
          [
            -123.019829,
            49.245656
          ],
          [
            -123.019851,
            49.246103
          ],
          [
            -123.019846,
            49.246558
          ],
          [
            -123.019844,
            49.246891
          ],
          [
            -123.019843,
            49.247012
          ],
          [
            -123.01984,
            49.247461
          ],
          [
            -123.019836,
            49.247913
          ],
          [
            -123.019831,
            49.248367
          ],
          [
            -123.019829,
            49.248818
          ],
          [
            -123.020992,
            49.248825
          ],
          [
            -123.022866,
            49.248834
          ],
          [
            -123.023268,
            49.248839
          ],
          [
            -123.023434,
            49.248869
          ],
          [
            -123.023554,
            49.248956
          ],
          [
            -123.023555,
            49.249739
          ],
          [
            -123.023553,
            49.249941
          ],
          [
            -123.02363,
            49.250084
          ],
          [
            -123.023643,
            49.250436
          ],
          [
            -123.023709,
            49.250546
          ],
          [
            -123.023808,
            49.250638
          ],
          [
            -123.02459,
            49.250645
          ],
          [
            -123.025361,
            49.25065
          ],
          [
            -123.026252,
            49.250656
          ],
          [
            -123.028536,
            49.250637
          ],
          [
            -123.029975,
            49.250619
          ],
          [
            -123.031084,
            49.250609
          ],
          [
            -123.033094,
            49.250603
          ],
          [
            -123.033409,
            49.2506
          ],
          [
            -123.033758,
            49.250602
          ],
          [
            -123.033868,
            49.250603
          ],
          [
            -123.034573,
            49.250606
          ],
          [
            -123.03654,
            49.250603
          ],
          [
            -123.037144,
            49.250603
          ],
          [
            -123.038465,
            49.250603
          ],
          [
            -123.039071,
            49.250608
          ],
          [
            -123.039683,
            49.250613
          ],
          [
            -123.040988,
            49.250608
          ],
          [
            -123.041609,
            49.250614
          ],
          [
            -123.042639,
            49.250621
          ],
          [
            -123.043254,
            49.250624
          ],
          [
            -123.043403,
            49.250625
          ],
          [
            -123.044175,
            49.250633
          ],
          [
            -123.044364,
            49.250676
          ],
          [
            -123.044692,
            49.250679
          ],
          [
            -123.044939,
            49.250682
          ],
          [
            -123.045096,
            49.250684
          ],
          [
            -123.047104,
            49.250695
          ],
          [
            -123.049031,
            49.250708
          ],
          [
            -123.049638,
            49.250701
          ],
          [
            -123.050235,
            49.250709
          ],
          [
            -123.052246,
            49.250708
          ],
          [
            -123.054588,
            49.250697
          ],
          [
            -123.05589,
            49.250694
          ],
          [
            -123.056633,
            49.250693
          ],
          [
            -123.056633,
            49.251516
          ],
          [
            -123.056628,
            49.252346
          ],
          [
            -123.056628,
            49.252779
          ],
          [
            -123.056624,
            49.253472
          ],
          [
            -123.056618,
            49.255096
          ],
          [
            -123.056617,
            49.256428
          ],
          [
            -123.056614,
            49.256749
          ],
          [
            -123.056627,
            49.257237
          ],
          [
            -123.056633,
            49.257733
          ],
          [
            -123.056628,
            49.257807
          ],
          [
            -123.057439,
            49.258022
          ],
          [
            -123.058079,
            49.258236
          ],
          [
            -123.058249,
            49.258258
          ],
          [
            -123.060051,
            49.259023
          ],
          [
            -123.060315,
            49.259137
          ],
          [
            -123.060713,
            49.259292
          ],
          [
            -123.061123,
            49.259404
          ],
          [
            -123.061528,
            49.25947
          ],
          [
            -123.06185,
            49.259498
          ],
          [
            -123.062094,
            49.259505
          ],
          [
            -123.064021,
            49.259518
          ],
          [
            -123.065313,
            49.259531
          ],
          [
            -123.065964,
            49.259536
          ],
          [
            -123.066618,
            49.259541
          ],
          [
            -123.069169,
            49.25957
          ],
          [
            -123.069821,
            49.25957
          ],
          [
            -123.070424,
            49.259573
          ],
          [
            -123.073703,
            49.259598
          ],
          [
            -123.074151,
            49.259601
          ],
          [
            -123.074294,
            49.259602
          ],
          [
            -123.074386,
            49.259602
          ],
          [
            -123.076999,
            49.259622
          ],
          [
            -123.077422,
            49.259625
          ],
          [
            -123.077609,
            49.259627
          ],
          [
            -123.078569,
            49.259629
          ],
          [
            -123.081434,
            49.259659
          ],
          [
            -123.083373,
            49.259673
          ],
          [
            -123.085302,
            49.259688
          ],
          [
            -123.087242,
            49.259708
          ],
          [
            -123.089181,
            49.259717
          ],
          [
            -123.091114,
            49.259734
          ],
          [
            -123.093038,
            49.259753
          ],
          [
            -123.094974,
            49.259763
          ],
          [
            -123.095655,
            49.259776
          ],
          [
            -123.096002,
            49.259788
          ],
          [
            -123.096451,
            49.259854
          ],
          [
            -123.09672,
            49.259905
          ],
          [
            -123.096922,
            49.259977
          ],
          [
            -123.097272,
            49.260039
          ],
          [
            -123.097499,
            49.260044
          ],
          [
            -123.097605,
            49.260063
          ],
          [
            -123.098321,
            49.260184
          ],
          [
            -123.098475,
            49.260197
          ],
          [
            -123.099147,
            49.260201
          ],
          [
            -123.099368,
            49.260201
          ],
          [
            -123.100199,
            49.2602
          ],
          [
            -123.100453,
            49.2602
          ],
          [
            -123.100998,
            49.260201
          ],
          [
            -123.101176,
            49.260204
          ],
          [
            -123.101672,
            49.260213
          ],
          [
            -123.101854,
            49.260217
          ],
          [
            -123.102129,
            49.260221
          ],
          [
            -123.103089,
            49.260239
          ],
          [
            -123.105035,
            49.260278
          ],
          [
            -123.106954,
            49.260314
          ],
          [
            -123.109131,
            49.260351
          ],
          [
            -123.109557,
            49.260345
          ],
          [
            -123.110321,
            49.260332
          ],
          [
            -123.110943,
            49.260343
          ],
          [
            -123.111054,
            49.260345
          ],
          [
            -123.111196,
            49.260347
          ],
          [
            -123.11303,
            49.260381
          ],
          [
            -123.113824,
            49.260391
          ],
          [
            -123.113822,
            49.260522
          ],
          [
            -123.113791,
            49.26059
          ],
          [
            -123.113676,
            49.260635
          ],
          [
            -123.113495,
            49.260655
          ],
          [
            -123.113427,
            49.260683
          ],
          [
            -123.113369,
            49.260731
          ],
          [
            -123.11332,
            49.260821
          ],
          [
            -123.113315,
            49.260929
          ],
          [
            -123.11336,
            49.261067
          ],
          [
            -123.113416,
            49.261112
          ],
          [
            -123.113491,
            49.261133
          ],
          [
            -123.11394,
            49.261145
          ]
        ]
      }
    },
    {
      "bbox": [
        -123.11394,
        49.22537,
        -123.002452,
        49.261145
      ],
      "type": "Feature",
      "properties": {
        "way_points": [
          0,
          222
        ],
        "summary": {
          "distance": 11629.4,
          "duration": 1318.7
        }
      },
      "geometry": {
        "type": "LineString",
        "coordinates": [
          [
            -123.003794,
            49.225946
          ],
          [
            -123.003784,
            49.225942
          ],
          [
            -123.002974,
            49.22557
          ],
          [
            -123.002538,
            49.22537
          ],
          [
            -123.002452,
            49.225438
          ],
          [
            -123.003707,
            49.226009
          ],
          [
            -123.003937,
            49.226114
          ],
          [
            -123.0041,
            49.226188
          ],
          [
            -123.004448,
            49.226346
          ],
          [
            -123.004547,
            49.22639
          ],
          [
            -123.004587,
            49.226408
          ],
          [
            -123.004908,
            49.226554
          ],
          [
            -123.005589,
            49.226826
          ],
          [
            -123.005707,
            49.226871
          ],
          [
            -123.006362,
            49.227158
          ],
          [
            -123.007488,
            49.227645
          ],
          [
            -123.007602,
            49.227694
          ],
          [
            -123.007751,
            49.227667
          ],
          [
            -123.00845,
            49.227987
          ],
          [
            -123.00888,
            49.228207
          ],
          [
            -123.008972,
            49.228247
          ],
          [
            -123.01033,
            49.228841
          ],
          [
            -123.012103,
            49.229686
          ],
          [
            -123.01234,
            49.229793
          ],
          [
            -123.012667,
            49.229836
          ],
          [
            -123.012669,
            49.230167
          ],
          [
            -123.012675,
            49.231357
          ],
          [
            -123.012675,
            49.231386
          ],
          [
            -123.012676,
            49.231627
          ],
          [
            -123.012677,
            49.231781
          ],
          [
            -123.012677,
            49.231824
          ],
          [
            -123.012678,
            49.231877
          ],
          [
            -123.01268,
            49.232246
          ],
          [
            -123.01268,
            49.232503
          ],
          [
            -123.012611,
            49.232602
          ],
          [
            -123.012452,
            49.232607
          ],
          [
            -123.012567,
            49.232667
          ],
          [
            -123.012722,
            49.232711
          ],
          [
            -123.01344,
            49.232821
          ],
          [
            -123.014124,
            49.232884
          ],
          [
            -123.014237,
            49.232892
          ],
          [
            -123.0149,
            49.232916
          ],
          [
            -123.015061,
            49.232911
          ],
          [
            -123.015175,
            49.232893
          ],
          [
            -123.01526,
            49.232853
          ],
          [
            -123.015822,
            49.23284
          ],
          [
            -123.016391,
            49.232806
          ],
          [
            -123.016483,
            49.2328
          ],
          [
            -123.017047,
            49.232763
          ],
          [
            -123.018613,
            49.232649
          ],
          [
            -123.018737,
            49.23264
          ],
          [
            -123.019034,
            49.232772
          ],
          [
            -123.019376,
            49.232927
          ],
          [
            -123.019603,
            49.233027
          ],
          [
            -123.019742,
            49.233111
          ],
          [
            -123.019896,
            49.233323
          ],
          [
            -123.019929,
            49.23336
          ],
          [
            -123.019949,
            49.233411
          ],
          [
            -123.019941,
            49.233652
          ],
          [
            -123.019933,
            49.234066
          ],
          [
            -123.019929,
            49.234348
          ],
          [
            -123.019923,
            49.234812
          ],
          [
            -123.019922,
            49.234899
          ],
          [
            -123.019914,
            49.23553
          ],
          [
            -123.019894,
            49.236976
          ],
          [
            -123.019888,
            49.237391
          ],
          [
            -123.019884,
            49.237654
          ],
          [
            -123.019882,
            49.238063
          ],
          [
            -123.019873,
            49.238425
          ],
          [
            -123.01987,
            49.238785
          ],
          [
            -123.019853,
            49.239862
          ],
          [
            -123.019857,
            49.239923
          ],
          [
            -123.019855,
            49.240233
          ],
          [
            -123.019841,
            49.241319
          ],
          [
            -123.019827,
            49.242066
          ],
          [
            -123.019817,
            49.242656
          ],
          [
            -123.019817,
            49.242999
          ],
          [
            -123.019816,
            49.243642
          ],
          [
            -123.019806,
            49.244015
          ],
          [
            -123.019803,
            49.244413
          ],
          [
            -123.019801,
            49.244851
          ],
          [
            -123.019802,
            49.245218
          ],
          [
            -123.019802,
            49.245279
          ],
          [
            -123.019812,
            49.245436
          ],
          [
            -123.019829,
            49.245656
          ],
          [
            -123.019851,
            49.246103
          ],
          [
            -123.019846,
            49.246558
          ],
          [
            -123.019844,
            49.246891
          ],
          [
            -123.019843,
            49.247012
          ],
          [
            -123.01984,
            49.247461
          ],
          [
            -123.019836,
            49.247913
          ],
          [
            -123.019831,
            49.248367
          ],
          [
            -123.019829,
            49.248818
          ],
          [
            -123.020992,
            49.248825
          ],
          [
            -123.022866,
            49.248834
          ],
          [
            -123.023268,
            49.248839
          ],
          [
            -123.023434,
            49.248869
          ],
          [
            -123.023554,
            49.248956
          ],
          [
            -123.023555,
            49.249739
          ],
          [
            -123.023553,
            49.249941
          ],
          [
            -123.02363,
            49.250084
          ],
          [
            -123.023643,
            49.250436
          ],
          [
            -123.023709,
            49.250546
          ],
          [
            -123.023808,
            49.250638
          ],
          [
            -123.02459,
            49.250645
          ],
          [
            -123.025361,
            49.25065
          ],
          [
            -123.026252,
            49.250656
          ],
          [
            -123.028536,
            49.250637
          ],
          [
            -123.029975,
            49.250619
          ],
          [
            -123.031084,
            49.250609
          ],
          [
            -123.033094,
            49.250603
          ],
          [
            -123.033409,
            49.2506
          ],
          [
            -123.033758,
            49.250602
          ],
          [
            -123.033868,
            49.250603
          ],
          [
            -123.034573,
            49.250606
          ],
          [
            -123.03654,
            49.250603
          ],
          [
            -123.037144,
            49.250603
          ],
          [
            -123.038465,
            49.250603
          ],
          [
            -123.039071,
            49.250608
          ],
          [
            -123.039683,
            49.250613
          ],
          [
            -123.040988,
            49.250608
          ],
          [
            -123.041609,
            49.250614
          ],
          [
            -123.042639,
            49.250621
          ],
          [
            -123.043254,
            49.250624
          ],
          [
            -123.043403,
            49.250625
          ],
          [
            -123.044175,
            49.250633
          ],
          [
            -123.044364,
            49.250676
          ],
          [
            -123.044692,
            49.250679
          ],
          [
            -123.044939,
            49.250682
          ],
          [
            -123.045096,
            49.250684
          ],
          [
            -123.047104,
            49.250695
          ],
          [
            -123.049031,
            49.250708
          ],
          [
            -123.049638,
            49.250701
          ],
          [
            -123.050235,
            49.250709
          ],
          [
            -123.052246,
            49.250708
          ],
          [
            -123.054588,
            49.250697
          ],
          [
            -123.05589,
            49.250694
          ],
          [
            -123.056633,
            49.250693
          ],
          [
            -123.056633,
            49.251516
          ],
          [
            -123.056628,
            49.252346
          ],
          [
            -123.056628,
            49.252779
          ],
          [
            -123.056624,
            49.253472
          ],
          [
            -123.056618,
            49.255096
          ],
          [
            -123.056617,
            49.256428
          ],
          [
            -123.056614,
            49.256749
          ],
          [
            -123.056627,
            49.257237
          ],
          [
            -123.056633,
            49.257733
          ],
          [
            -123.056628,
            49.257807
          ],
          [
            -123.057439,
            49.258022
          ],
          [
            -123.058079,
            49.258236
          ],
          [
            -123.058249,
            49.258258
          ],
          [
            -123.060051,
            49.259023
          ],
          [
            -123.060315,
            49.259137
          ],
          [
            -123.060713,
            49.259292
          ],
          [
            -123.061123,
            49.259404
          ],
          [
            -123.061528,
            49.25947
          ],
          [
            -123.06185,
            49.259498
          ],
          [
            -123.062094,
            49.259505
          ],
          [
            -123.064021,
            49.259518
          ],
          [
            -123.065313,
            49.259531
          ],
          [
            -123.065964,
            49.259536
          ],
          [
            -123.066618,
            49.259541
          ],
          [
            -123.069169,
            49.25957
          ],
          [
            -123.069821,
            49.25957
          ],
          [
            -123.070424,
            49.259573
          ],
          [
            -123.073703,
            49.259598
          ],
          [
            -123.074151,
            49.259601
          ],
          [
            -123.074294,
            49.259602
          ],
          [
            -123.074386,
            49.259602
          ],
          [
            -123.076999,
            49.259622
          ],
          [
            -123.077422,
            49.259625
          ],
          [
            -123.077609,
            49.259627
          ],
          [
            -123.078569,
            49.259629
          ],
          [
            -123.081434,
            49.259659
          ],
          [
            -123.083373,
            49.259673
          ],
          [
            -123.085302,
            49.259688
          ],
          [
            -123.087242,
            49.259708
          ],
          [
            -123.089181,
            49.259717
          ],
          [
            -123.091114,
            49.259734
          ],
          [
            -123.093038,
            49.259753
          ],
          [
            -123.094974,
            49.259763
          ],
          [
            -123.095655,
            49.259776
          ],
          [
            -123.096002,
            49.259788
          ],
          [
            -123.096451,
            49.259854
          ],
          [
            -123.09672,
            49.259905
          ],
          [
            -123.096922,
            49.259977
          ],
          [
            -123.097272,
            49.260039
          ],
          [
            -123.097499,
            49.260044
          ],
          [
            -123.097605,
            49.260063
          ],
          [
            -123.098321,
            49.260184
          ],
          [
            -123.098475,
            49.260197
          ],
          [
            -123.099147,
            49.260201
          ],
          [
            -123.099368,
            49.260201
          ],
          [
            -123.100199,
            49.2602
          ],
          [
            -123.100453,
            49.2602
          ],
          [
            -123.100998,
            49.260201
          ],
          [
            -123.101176,
            49.260204
          ],
          [
            -123.101672,
            49.260213
          ],
          [
            -123.101854,
            49.260217
          ],
          [
            -123.102129,
            49.260221
          ],
          [
            -123.103089,
            49.260239
          ],
          [
            -123.105035,
            49.260278
          ],
          [
            -123.106954,
            49.260314
          ],
          [
            -123.109131,
            49.260351
          ],
          [
            -123.109557,
            49.260345
          ],
          [
            -123.110321,
            49.260332
          ],
          [
            -123.110943,
            49.260343
          ],
          [
            -123.111054,
            49.260345
          ],
          [
            -123.111196,
            49.260347
          ],
          [
            -123.11303,
            49.260381
          ],
          [
            -123.113824,
            49.260391
          ],
          [
            -123.113822,
            49.260522
          ],
          [
            -123.113791,
            49.26059
          ],
          [
            -123.113676,
            49.260635
          ],
          [
            -123.113495,
            49.260655
          ],
          [
            -123.113427,
            49.260683
          ],
          [
            -123.113369,
            49.260731
          ],
          [
            -123.11332,
            49.260821
          ],
          [
            -123.113315,
            49.260929
          ],
          [
            -123.11336,
            49.261067
          ],
          [
            -123.113416,
            49.261112
          ],
          [
            -123.113491,
            49.261133
          ],
          [
            -123.11394,
            49.261145
          ]
        ]
      }
    }
  ],
  "metadata": {
    "attribution": "openrouteservice.org | OpenStreetMap contributors",
    "service": "routing",
    "timestamp": 1791586193190,
    "query": {
      "coordinates": [
        [
          -123.00389461219311,
          49.22585243517196
        ],
        [
          -123.11395730777639,
          49.260889109224436
        ]
      ],
      "profile": "driving-car",
      "profileName": "driving-car",
      "format": "geojson",
      "units": "m",
      "alternative_routes": {
        "target_count": 3,
        "weight_factor": 1.4,
        "share_factor": 0.6
      }
    },
    "engine": {
      "version": "9.10.0",
      "build_date": "2026-08-13T11:53:14Z",
      "graph_date": "2026-09-21T10:31:27Z",
      "osm_date": "2026-09-13T23:59:59Z"
    }
  }
}
