{
  "type": "FeatureCollection",
  "bbox": [
    -123.11885,
    49.200192,
    -122.912485,
    49.282493
  ],
  "features": [
    {
      "bbox": [
        -123.118136,
        49.200192,
        -122.912485,
        49.282493
      ],
      "type": "Feature",
      "properties": {
        "way_points": [
          0,
          381
        ],
        "summary": {
          "distance": 21400.0,
          "duration": 2196.4
        }
      },
      "geometry": {
        "type": "LineString",
        "coordinates": [
          [
            -122.912485,
            49.200761
          ],
          [
            -122.912696,
            49.200641
          ],
          [
            -122.912799,
            49.200586
          ],
          [
            -122.913037,
            49.200507
          ],
          [
            -122.913751,
            49.200369
          ],
          [
            -122.914601,
            49.200249
          ],
          [
            -122.915489,
            49.200192
          ],
          [
            -122.915497,
            49.200486
          ],
          [
            -122.91542,
            49.200504
          ],
          [
            -122.915392,
            49.200524
          ],
          [
            -122.915378,
            49.20059
          ],
          [
            -122.915435,
            49.200636
          ],
          [
            -122.915534,
            49.200642
          ],
          [
            -122.915771,
            49.20083
          ],
          [
            -122.91586,
            49.200855
          ],
          [
            -122.915939,
            49.200925
          ],
          [
            -122.916436,
            49.201317
          ],
          [
            -122.916778,
            49.201589
          ],
          [
            -122.917418,
            49.202096
          ],
          [
            -122.916765,
            49.202442
          ],
          [
            -122.915524,
            49.203106
          ],
          [
            -122.915193,
            49.203325
          ],
          [
            -122.914607,
            49.203719
          ],
          [
            -122.915769,
            49.204644
          ],
          [
            -122.916388,
            49.205143
          ],
          [
            -122.916974,
            49.205592
          ],
          [
            -122.918381,
            49.20671
          ],
          [
            -122.91935,
            49.207483
          ],
          [
            -122.919623,
            49.207699
          ],
          [
            -122.920316,
            49.208248
          ],
          [
            -122.921287,
            49.209018
          ],
          [
            -122.922249,
            49.209786
          ],
          [
            -122.922995,
            49.210377
          ],
          [
            -122.923557,
            49.210823
          ],
          [
            -122.923619,
            49.210873
          ],
          [
            -122.923831,
            49.211041
          ],
          [
            -122.923999,
            49.211172
          ],
          [
            -122.924433,
            49.211503
          ],
          [
            -122.924857,
            49.211822
          ],
          [
            -122.924912,
            49.211869
          ],
          [
            -122.925434,
            49.212289
          ],
          [
            -122.925698,
            49.212497
          ],
          [
            -122.926647,
            49.213251
          ],
          [
            -122.927577,
            49.213935
          ],
          [
            -122.927642,
            49.214011
          ],
          [
            -122.928151,
            49.214391
          ],
          [
            -122.928598,
            49.21473
          ],
          [
            -122.929055,
            49.215087
          ],
          [
            -122.929539,
            49.215458
          ],
          [
            -122.930013,
            49.215816
          ],
          [
            -122.930487,
            49.216175
          ],
          [
            -122.930959,
            49.216538
          ],
          [
            -122.931442,
            49.216894
          ],
          [
            -122.93181,
            49.21716
          ],
          [
            -122.931851,
            49.217188
          ],
          [
            -122.932483,
            49.21764
          ],
          [
            -122.933454,
            49.218367
          ],
          [
            -122.934485,
            49.219141
          ],
          [
            -122.935321,
            49.21976
          ],
          [
            -122.935758,
            49.220082
          ],
          [
            -122.936174,
            49.2204
          ],
          [
            -122.936989,
            49.221026
          ],
          [
            -122.937865,
            49.221662
          ],
          [
            -122.938624,
            49.222257
          ],
          [
            -122.939318,
            49.22278
          ],
          [
            -122.939498,
            49.222918
          ],
          [
            -122.939808,
            49.223153
          ],
          [
            -122.939885,
            49.223269
          ],
          [
            -122.939962,
            49.223334
          ],
          [
            -122.940419,
            49.223682
          ],
          [
            -122.940971,
            49.224095
          ],
          [
            -122.941153,
            49.224255
          ],
          [
            -122.941309,
            49.224375
          ],
          [
            -122.94142,
            49.224464
          ],
          [
            -122.941621,
            49.224626
          ],
          [
            -122.942246,
            49.225124
          ],
          [
            -122.942883,
            49.225647
          ],
          [
            -122.943097,
            49.22576
          ],
          [
            -122.943246,
            49.225882
          ],
          [
            -122.944027,
            49.22653
          ],
          [
            -122.944182,
            49.226657
          ],
          [
            -122.944209,
            49.226679
          ],
          [
            -122.944504,
            49.226931
          ],
          [
            -122.945127,
            49.227454
          ],
          [
            -122.945478,
            49.227763
          ],
          [
            -122.945763,
            49.227991
          ],
          [
            -122.94581,
            49.22803
          ],
          [
            -122.946003,
            49.228269
          ],
          [
            -122.946376,
            49.228585
          ],
          [
            -122.947175,
            49.229255
          ],
          [
            -122.94766,
            49.229647
          ],
          [
            -122.94802,
            49.229883
          ],
          [
            -122.948275,
            49.230107
          ],
          [
            -122.948769,
            49.230519
          ],
          [
            -122.949073,
            49.230776
          ],
          [
            -122.950752,
            49.232181
          ],
          [
            -122.95118,
            49.232557
          ],
          [
            -122.951464,
            49.232806
          ],
          [
            -122.953103,
            49.234243
          ],
          [
            -122.953641,
            49.23473
          ],
          [
            -122.953775,
            49.234853
          ],
          [
            -122.95393,
            49.234994
          ],
          [
            -122.954097,
            49.235148
          ],
          [
            -122.954488,
            49.235496
          ],
          [
            -122.954689,
            49.235676
          ],
          [
            -122.954813,
            49.235783
          ],
          [
            -122.954938,
            49.235891
          ],
          [
            -122.955384,
            49.236267
          ],
          [
            -122.955399,
            49.236281
          ],
          [
            -122.956687,
            49.237392
          ],
          [
            -122.957021,
            49.237642
          ],
          [
            -122.957327,
            49.237815
          ],
          [
            -122.957644,
            49.237927
          ],
          [
            -122.957976,
            49.238022
          ],
          [
            -122.95825,
            49.238098
          ],
          [
            -122.96005,
            49.238616
          ],
          [
            -122.9618,
            49.239102
          ],
          [
            -122.962076,
            49.239187
          ],
          [
            -122.962208,
            49.239258
          ],
          [
            -122.962494,
            49.239341
          ],
          [
            -122.963639,
            49.239621
          ],
          [
            -122.964494,
            49.239768
          ],
          [
            -122.964689,
            49.239762
          ],
          [
            -122.965319,
            49.239922
          ],
          [
            -122.965475,
            49.239961
          ],
          [
            -122.965786,
            49.24006
          ],
          [
            -122.966015,
            49.240155
          ],
          [
            -122.966681,
            49.240583
          ],
          [
            -122.96708,
            49.240853
          ],
          [
            -122.967394,
            49.241069
          ],
          [
            -122.967451,
            49.241212
          ],
          [
            -122.967933,
            49.241571
          ],
          [
            -122.968106,
            49.241858
          ],
          [
            -122.968119,
            49.241996
          ],
          [
            -122.968014,
            49.242228
          ],
          [
            -122.967853,
            49.242616
          ],
          [
            -122.967684,
            49.243196
          ],
          [
            -122.967628,
            49.243395
          ],
          [
            -122.967416,
            49.244021
          ],
          [
            -122.967201,
            49.244653
          ],
          [
            -122.966856,
            49.244973
          ],
          [
            -122.966733,
            49.245037
          ],
          [
            -122.966462,
            49.245103
          ],
          [
            -122.966194,
            49.245107
          ],
          [
            -122.966015,
            49.245078
          ],
          [
            -122.965859,
            49.245027
          ],
          [
            -122.965727,
            49.244957
          ],
          [
            -122.965625,
            49.24487
          ],
          [
            -122.96554,
            49.244745
          ],
          [
            -122.965503,
            49.244628
          ],
          [
            -122.965496,
            49.2445
          ],
          [
            -122.965544,
            49.244223
          ],
          [
            -122.965604,
            49.244056
          ],
          [
            -122.965675,
            49.243922
          ],
          [
            -122.965777,
            49.243799
          ],
          [
            -122.965952,
            49.243668
          ],
          [
            -122.966117,
            49.243603
          ],
          [
            -122.966428,
            49.243552
          ],
          [
            -122.966608,
            49.243551
          ],
          [
            -122.966906,
            49.24361
          ],
          [
            -122.967083,
            49.24367
          ],
          [
            -122.967311,
            49.243784
          ],
          [
            -122.967733,
            49.244075
          ],
          [
            -122.968288,
            49.244387
          ],
          [
            -122.968855,
            49.244954
          ],
          [
            -122.970116,
            49.246366
          ],
          [
            -122.974314,
            49.251107
          ],
          [
            -122.974762,
            49.251634
          ],
          [
            -122.975818,
            49.252807
          ],
          [
            -122.977728,
            49.254959
          ],
          [
            -122.978261,
            49.25545
          ],
          [
            -122.97872,
            49.255811
          ],
          [
            -122.979219,
            49.256151
          ],
          [
            -122.979758,
            49.25647
          ],
          [
            -122.980294,
            49.256742
          ],
          [
            -122.980855,
            49.256995
          ],
          [
            -122.981428,
            49.2572
          ],
          [
            -122.982047,
            49.257395
          ],
          [
            -122.98274,
            49.257579
          ],
          [
            -122.983004,
            49.257637
          ],
          [
            -122.983648,
            49.257754
          ],
          [
            -122.984268,
            49.257838
          ],
          [
            -122.98496,
            49.257907
          ],
          [
            -122.985949,
            49.257944
          ],
          [
            -122.990855,
            49.257965
          ],
          [
            -122.994538,
            49.257947
          ],
          [
            -122.996301,
            49.257898
          ],
          [
            -123.000245,
            49.257748
          ],
          [
            -123.001655,
            49.25773
          ],
          [
            -123.003254,
            49.257751
          ],
          [
            -123.007196,
            49.257778
          ],
          [
            -123.008293,
            49.257799
          ],
          [
            -123.009166,
            49.257832
          ],
          [
            -123.01066,
            49.257921
          ],
          [
            -123.011337,
            49.257939
          ],
          [
            -123.012377,
            49.257928
          ],
          [
            -123.013383,
            49.257906
          ],
          [
            -123.013987,
            49.257874
          ],
          [
            -123.015305,
            49.257757
          ],
          [
            -123.015869,
            49.257726
          ],
          [
            -123.016334,
            49.257709
          ],
          [
            -123.016903,
            49.257722
          ],
          [
            -123.017423,
            49.257784
          ],
          [
            -123.017879,
            49.257871
          ],
          [
            -123.018321,
            49.257994
          ],
          [
            -123.019114,
            49.25828
          ],
          [
            -123.019541,
            49.258457
          ],
          [
            -123.020046,
            49.258715
          ],
          [
            -123.021071,
            49.259398
          ],
          [
            -123.021955,
            49.259996
          ],
          [
            -123.022395,
            49.260293
          ],
          [
            -123.022818,
            49.260581
          ],
          [
            -123.023382,
            49.260962
          ],
          [
            -123.023875,
            49.261307
          ],
          [
            -123.024414,
            49.261717
          ],
          [
            -123.024499,
            49.261801
          ],
          [
            -123.024882,
            49.262179
          ],
          [
            -123.02519,
            49.262569
          ],
          [
            -123.025454,
            49.262996
          ],
          [
            -123.025747,
            49.2637
          ],
          [
            -123.025819,
            49.264059
          ],
          [
            -123.025899,
            49.264644
          ],
          [
            -123.025951,
            49.26521
          ],
          [
            -123.025981,
            49.265753
          ],
          [
            -123.026131,
            49.266575
          ],
          [
            -123.026823,
            49.268062
          ],
          [
            -123.027374,
            49.269171
          ],
          [
            -123.027665,
            49.269766
          ],
          [
            -123.027995,
            49.270536
          ],
          [
            -123.028632,
            49.271634
          ],
          [
            -123.029122,
            49.272396
          ],
          [
            -123.02983,
            49.273348
          ],
          [
            -123.030264,
            49.27394
          ],
          [
            -123.030777,
            49.274689
          ],
          [
            -123.03099,
            49.27505
          ],
          [
            -123.031123,
            49.275369
          ],
          [
            -123.031242,
            49.276251
          ],
          [
            -123.031256,
            49.277509
          ],
          [
            -123.031267,
            49.278654
          ],
          [
            -123.03127,
            49.279011
          ],
          [
            -123.03131,
            49.279581
          ],
          [
            -123.031325,
            49.279677
          ],
          [
            -123.031405,
            49.27981
          ],
          [
            -123.031454,
            49.280079
          ],
          [
            -123.031514,
            49.280771
          ],
          [
            -123.031541,
            49.280985
          ],
          [
            -123.03157,
            49.281064
          ],
          [
            -123.031596,
            49.281133
          ],
          [
            -123.03166,
            49.281195
          ],
          [
            -123.03206,
            49.281197
          ],
          [
            -123.032959,
            49.281199
          ],
          [
            -123.033578,
            49.281195
          ],
          [
            -123.034031,
            49.281143
          ],
          [
            -123.03465,
            49.281135
          ],
          [
            -123.036207,
            49.281129
          ],
          [
            -123.038836,
            49.281129
          ],
          [
            -123.040873,
            49.28113
          ],
          [
            -123.04143,
            49.28113
          ],
          [
            -123.043054,
            49.281124
          ],
          [
            -123.044085,
            49.281133
          ],
          [
            -123.044509,
            49.281134
          ],
          [
            -123.04487,
            49.281135
          ],
          [
            -123.04497,
            49.281136
          ],
          [
            -123.045298,
            49.281137
          ],
          [
            -123.045504,
            49.281137
          ],
          [
            -123.046182,
            49.28114
          ],
          [
            -123.046712,
            49.281142
          ],
          [
            -123.047131,
            49.281146
          ],
          [
            -123.047546,
            49.281147
          ],
          [
            -123.048981,
            49.281145
          ],
          [
            -123.049339,
            49.281145
          ],
          [
            -123.049925,
            49.281146
          ],
          [
            -123.049959,
            49.281146
          ],
          [
            -123.051965,
            49.281145
          ],
          [
            -123.056509,
            49.28115
          ],
          [
            -123.056646,
            49.281151
          ],
          [
            -123.05756,
            49.281155
          ],
          [
            -123.057837,
            49.281157
          ],
          [
            -123.059779,
            49.281175
          ],
          [
            -123.061709,
            49.281179
          ],
          [
            -123.062029,
            49.28118
          ],
          [
            -123.062816,
            49.281183
          ],
          [
            -123.063174,
            49.281184
          ],
          [
            -123.063209,
            49.281184
          ],
          [
            -123.063423,
            49.281185
          ],
          [
            -123.063643,
            49.281186
          ],
          [
            -123.064455,
            49.281185
          ],
          [
            -123.065013,
            49.281187
          ],
          [
            -123.065591,
            49.281186
          ],
          [
            -123.065836,
            49.281187
          ],
          [
            -123.066145,
            49.28119
          ],
          [
            -123.066289,
            49.28119
          ],
          [
            -123.067513,
            49.281203
          ],
          [
            -123.068283,
            49.281212
          ],
          [
            -123.068541,
            49.281264
          ],
          [
            -123.069547,
            49.281288
          ],
          [
            -123.070337,
            49.281298
          ],
          [
            -123.070471,
            49.2813
          ],
          [
            -123.071284,
            49.281309
          ],
          [
            -123.072293,
            49.2813
          ],
          [
            -123.072442,
            49.28126
          ],
          [
            -123.072638,
            49.281263
          ],
          [
            -123.07411,
            49.281281
          ],
          [
            -123.074286,
            49.281323
          ],
          [
            -123.075466,
            49.281354
          ],
          [
            -123.07586,
            49.281357
          ],
          [
            -123.076319,
            49.281363
          ],
          [
            -123.077051,
            49.281378
          ],
          [
            -123.077184,
            49.281381
          ],
          [
            -123.077429,
            49.281386
          ],
          [
            -123.078003,
            49.281391
          ],
          [
            -123.078236,
            49.281378
          ],
          [
            -123.078736,
            49.281289
          ],
          [
            -123.078842,
            49.281214
          ],
          [
            -123.078985,
            49.281177
          ],
          [
            -123.079174,
            49.281129
          ],
          [
            -123.079538,
            49.281037
          ],
          [
            -123.079966,
            49.280989
          ],
          [
            -123.080608,
            49.280995
          ],
          [
            -123.080815,
            49.280996
          ],
          [
            -123.081034,
            49.280998
          ],
          [
            -123.081295,
            49.281002
          ],
          [
            -123.081446,
            49.281005
          ],
          [
            -123.082044,
            49.281014
          ],
          [
            -123.082579,
            49.281022
          ],
          [
            -123.084037,
            49.281048
          ],
          [
            -123.084808,
            49.281067
          ],
          [
            -123.08717,
            49.281111
          ],
          [
            -123.089543,
            49.281154
          ],
          [
            -123.091491,
            49.281198
          ],
          [
            -123.09344,
            49.281232
          ],
          [
            -123.094617,
            49.281254
          ],
          [
            -123.094822,
            49.281257
          ],
          [
            -123.0954,
            49.281268
          ],
          [
            -123.097487,
            49.281301
          ],
          [
            -123.097418,
            49.280796
          ],
          [
            -123.097347,
            49.280347
          ],
          [
            -123.098941,
            49.280379
          ],
          [
            -123.099708,
            49.280394
          ],
          [
            -123.100443,
            49.280407
          ],
          [
            -123.102315,
            49.280436
          ],
          [
            -123.103866,
            49.280468
          ],
          [
            -123.104266,
            49.280475
          ],
          [
            -123.104381,
            49.280492
          ],
          [
            -123.104942,
            49.280618
          ],
          [
            -123.105005,
            49.280633
          ],
          [
            -123.105098,
            49.280691
          ],
          [
            -123.10531,
            49.280734
          ],
          [
            -123.105453,
            49.280744
          ],
          [
            -123.105536,
            49.280728
          ],
          [
            -123.105616,
            49.280738
          ],
          [
            -123.105694,
            49.280747
          ],
          [
            -123.105929,
            49.280779
          ],
          [
            -123.107007,
            49.280982
          ],
          [
            -123.107581,
            49.281088
          ],
          [
            -123.108037,
            49.281169
          ],
          [
            -123.108189,
            49.281196
          ],
          [
            -123.108519,
            49.281254
          ],
          [
            -123.109091,
            49.281352
          ],
          [
            -123.109453,
            49.281414
          ],
          [
            -123.109664,
            49.281454
          ],
          [
            -123.109995,
            49.281552
          ],
          [
            -123.110071,
            49.281441
          ],
          [
            -123.110319,
            49.281277
          ],
          [
            -123.11046,
            49.281185
          ],
          [
            -123.110655,
            49.281055
          ],
          [
            -123.110666,
            49.281049
          ],
          [
            -123.110898,
            49.280896
          ],
          [
            -123.111149,
            49.280728
          ],
          [
            -123.111548,
            49.280465
          ],
          [
            -123.112115,
            49.280089
          ],
          [
            -123.112479,
            49.279848
          ],
          [
            -123.113248,
            49.279342
          ],
          [
            -123.113534,
            49.279525
          ],
          [
            -123.114218,
            49.279973
          ],
          [
            -123.115198,
            49.28058
          ],
          [
            -123.115695,
            49.280916
          ],
          [
            -123.115801,
            49.280986
          ],
          [
            -123.116206,
            49.281253
          ],
          [
            -123.116652,
            49.281543
          ],
          [
            -123.117134,
            49.281856
          ],
          [
            -123.118136,
            49.282493
          ]
        ]
      }
    },
    {
      "bbox": [
        -123.11885,
        49.200192,
        -122.912485,
        49.282493
      ],
      "type": "Feature",
      "properties": {
        "way_points": [
          0,
          397
        ],
        "summary": {
          "distance": 22030.2,
          "duration": 2342.0
        }
      },
      "geometry": {
        "type": "LineString",
        "coordinates": [
          [
            -122.912485,
            49.200761
          ],
          [
            -122.912696,
            49.200641
          ],
          [
            -122.912799,
            49.200586
          ],
          [
            -122.913037,
            49.200507
          ],
          [
            -122.913751,
            49.200369
          ],
          [
            -122.914601,
            49.200249
          ],
          [
            -122.915489,
            49.200192
          ],
          [
            -122.916629,
            49.200192
          ],
          [
            -122.917875,
            49.200298
          ],
          [
            -122.918059,
            49.200276
          ],
          [
            -122.918234,
            49.200289
          ],
          [
            -122.919223,
            49.200345
          ],
          [
            -122.920329,
            49.200414
          ],
          [
            -122.920563,
            49.200436
          ],
          [
            -122.921216,
            49.200531
          ],
          [
            -122.921315,
            49.200547
          ],
          [
            -122.921818,
            49.200625
          ],
          [
            -122.922322,
            49.200704
          ],
          [
            -122.922241,
            49.200993
          ],
          [
            -122.922259,
            49.201139
          ],
          [
            -122.922384,
            49.201284
          ],
          [
            -122.922623,
            49.201478
          ],
          [
            -122.922864,
            49.201659
          ],
          [
            -122.923062,
            49.201812
          ],
          [
            -122.92337,
            49.202035
          ],
          [
            -122.923871,
            49.202347
          ],
          [
            -122.924413,
            49.202744
          ],
          [
            -122.924937,
            49.203183
          ],
          [
            -122.925121,
            49.203328
          ],
          [
            -122.925734,
            49.203811
          ],
          [
            -122.926015,
            49.204033
          ],
          [
            -122.926867,
            49.204705
          ],
          [
            -122.927369,
            49.2051
          ],
          [
            -122.927852,
            49.205481
          ],
          [
            -122.928331,
            49.205861
          ],
          [
            -122.928814,
            49.206245
          ],
          [
            -122.929297,
            49.206632
          ],
          [
            -122.92963,
            49.206898
          ],
          [
            -122.930551,
            49.207636
          ],
          [
            -122.93057,
            49.207651
          ],
          [
            -122.930916,
            49.207929
          ],
          [
            -122.931346,
            49.208274
          ],
          [
            -122.932178,
            49.208943
          ],
          [
            -122.932258,
            49.209008
          ],
          [
            -122.932689,
            49.209354
          ],
          [
            -122.933164,
            49.209736
          ],
          [
            -122.93366,
            49.210102
          ],
          [
            -122.934151,
            49.2105
          ],
          [
            -122.934628,
            49.210868
          ],
          [
            -122.935076,
            49.21123
          ],
          [
            -122.935536,
            49.211592
          ],
          [
            -122.936005,
            49.211965
          ],
          [
            -122.936449,
            49.212325
          ],
          [
            -122.936925,
            49.2127
          ],
          [
            -122.937412,
            49.21308
          ],
          [
            -122.937585,
            49.213217
          ],
          [
            -122.93786,
            49.21343
          ],
          [
            -122.938179,
            49.213667
          ],
          [
            -122.938421,
            49.213825
          ],
          [
            -122.938892,
            49.214149
          ],
          [
            -122.939307,
            49.214436
          ],
          [
            -122.939424,
            49.214515
          ],
          [
            -122.939898,
            49.214845
          ],
          [
            -122.940193,
            49.215039
          ],
          [
            -122.94111,
            49.215611
          ],
          [
            -122.941243,
            49.215691
          ],
          [
            -122.941722,
            49.21596
          ],
          [
            -122.9428,
            49.216515
          ],
          [
            -122.943309,
            49.21675
          ],
          [
            -122.943594,
            49.216864
          ],
          [
            -122.943948,
            49.216973
          ],
          [
            -122.94467,
            49.217147
          ],
          [
            -122.945635,
            49.21737
          ],
          [
            -122.945847,
            49.217432
          ],
          [
            -122.947249,
            49.217846
          ],
          [
            -122.947904,
            49.217997
          ],
          [
            -122.94849,
            49.218096
          ],
          [
            -122.948943,
            49.218165
          ],
          [
            -122.949094,
            49.218232
          ],
          [
            -122.949293,
            49.218253
          ],
          [
            -122.949771,
            49.2183
          ],
          [
            -122.95051,
            49.218331
          ],
          [
            -122.951006,
            49.218345
          ],
          [
            -122.951438,
            49.218368
          ],
          [
            -122.951592,
            49.218376
          ],
          [
            -122.952724,
            49.218429
          ],
          [
            -122.952717,
            49.21886
          ],
          [
            -122.952724,
            49.219301
          ],
          [
            -122.952726,
            49.219369
          ],
          [
            -122.952722,
            49.219747
          ],
          [
            -122.95272,
            49.220189
          ],
          [
            -122.95272,
            49.220211
          ],
          [
            -122.952731,
            49.220337
          ],
          [
            -122.952766,
            49.220404
          ],
          [
            -122.953009,
            49.220612
          ],
          [
            -122.953123,
            49.220701
          ],
          [
            -122.953717,
            49.22118
          ],
          [
            -122.953865,
            49.2213
          ],
          [
            -122.954343,
            49.22168
          ],
          [
            -122.954876,
            49.222099
          ],
          [
            -122.955462,
            49.222575
          ],
          [
            -122.956049,
            49.223027
          ],
          [
            -122.956702,
            49.223564
          ],
          [
            -122.957148,
            49.223987
          ],
          [
            -122.957313,
            49.22417
          ],
          [
            -122.957579,
            49.224399
          ],
          [
            -122.958061,
            49.224806
          ],
          [
            -122.958616,
            49.22525
          ],
          [
            -122.958659,
            49.225287
          ],
          [
            -122.96043,
            49.22675
          ],
          [
            -122.960967,
            49.227151
          ],
          [
            -122.963945,
            49.229464
          ],
          [
            -122.964305,
            49.229747
          ],
          [
            -122.964507,
            49.22988
          ],
          [
            -122.965013,
            49.229589
          ],
          [
            -122.965299,
            49.229477
          ],
          [
            -122.965533,
            49.22941
          ],
          [
            -122.9658,
            49.229363
          ],
          [
            -122.966283,
            49.229318
          ],
          [
            -122.96703,
            49.229313
          ],
          [
            -122.967805,
            49.229314
          ],
          [
            -122.968194,
            49.229314
          ],
          [
            -122.969006,
            49.229282
          ],
          [
            -122.969597,
            49.229274
          ],
          [
            -122.969946,
            49.229283
          ],
          [
            -122.971191,
            49.229368
          ],
          [
            -122.972005,
            49.229393
          ],
          [
            -122.974149,
            49.229433
          ],
          [
            -122.974371,
            49.229438
          ],
          [
            -122.975489,
            49.229465
          ],
          [
            -122.975718,
            49.229459
          ],
          [
            -122.976122,
            49.229422
          ],
          [
            -122.97649,
            49.229353
          ],
          [
            -122.9768,
            49.229269
          ],
          [
            -122.977392,
            49.229032
          ],
          [
            -122.977728,
            49.228921
          ],
          [
            -122.978085,
            49.228837
          ],
          [
            -122.978322,
            49.228803
          ],
          [
            -122.978638,
            49.228778
          ],
          [
            -122.979009,
            49.228776
          ],
          [
            -122.979321,
            49.228799
          ],
          [
            -122.979676,
            49.228852
          ],
          [
            -122.979903,
            49.228892
          ],
          [
            -122.980331,
            49.228984
          ],
          [
            -122.980693,
            49.229087
          ],
          [
            -122.981502,
            49.229329
          ],
          [
            -122.981913,
            49.22945
          ],
          [
            -122.982429,
            49.229555
          ],
          [
            -122.98271,
            49.229579
          ],
          [
            -122.983236,
            49.229587
          ],
          [
            -122.984093,
            49.229592
          ],
          [
            -122.984143,
            49.229593
          ],
          [
            -122.984385,
            49.229623
          ],
          [
            -122.985136,
            49.229653
          ],
          [
            -122.985764,
            49.229658
          ],
          [
            -122.986391,
            49.229665
          ],
          [
            -122.986842,
            49.2297
          ],
          [
            -122.987376,
            49.229784
          ],
          [
            -122.98779,
            49.229869
          ],
          [
            -122.988196,
            49.229927
          ],
          [
            -122.988478,
            49.229942
          ],
          [
            -122.988844,
            49.229946
          ],
          [
            -122.988996,
            49.229946
          ],
          [
            -122.991509,
            49.229947
          ],
          [
            -122.993077,
            49.229947
          ],
          [
            -122.993353,
            49.229908
          ],
          [
            -122.99423,
            49.229917
          ],
          [
            -122.994224,
            49.230422
          ],
          [
            -122.994228,
            49.230917
          ],
          [
            -122.99423,
            49.231907
          ],
          [
            -122.994225,
            49.232413
          ],
          [
            -122.994226,
            49.233412
          ],
          [
            -122.99423,
            49.2339
          ],
          [
            -122.994234,
            49.234407
          ],
          [
            -122.994234,
            49.23526
          ],
          [
            -122.994265,
            49.235446
          ],
          [
            -122.994401,
            49.235422
          ],
          [
            -122.994931,
            49.235414
          ],
          [
            -122.996402,
            49.235412
          ],
          [
            -122.997815,
            49.235406
          ],
          [
            -122.998496,
            49.235403
          ],
          [
            -122.999186,
            49.235404
          ],
          [
            -123.000536,
            49.235401
          ],
          [
            -123.001206,
            49.235393
          ],
          [
            -123.001874,
            49.235394
          ],
          [
            -123.00251,
            49.235393
          ],
          [
            -123.003354,
            49.235387
          ],
          [
            -123.003369,
            49.236241
          ],
          [
            -123.003382,
            49.236936
          ],
          [
            -123.004178,
            49.236939
          ],
          [
            -123.004355,
            49.236937
          ],
          [
            -123.005776,
            49.236936
          ],
          [
            -123.006201,
            49.236934
          ],
          [
            -123.007466,
            49.236939
          ],
          [
            -123.008792,
            49.236939
          ],
          [
            -123.008859,
            49.23694
          ],
          [
            -123.011105,
            49.236942
          ],
          [
            -123.011696,
            49.236942
          ],
          [
            -123.011866,
            49.236943
          ],
          [
            -123.012292,
            49.236945
          ],
          [
            -123.012901,
            49.236946
          ],
          [
            -123.013512,
            49.236944
          ],
          [
            -123.013509,
            49.237475
          ],
          [
            -123.01351,
            49.237897
          ],
          [
            -123.013509,
            49.238326
          ],
          [
            -123.01351,
            49.238383
          ],
          [
            -123.013509,
            49.238745
          ],
          [
            -123.01351,
            49.238902
          ],
          [
            -123.013505,
            49.23917
          ],
          [
            -123.013508,
            49.239593
          ],
          [
            -123.013509,
            49.239833
          ],
          [
            -123.013506,
            49.240022
          ],
          [
            -123.013508,
            49.240434
          ],
          [
            -123.013504,
            49.240854
          ],
          [
            -123.013505,
            49.241281
          ],
          [
            -123.013478,
            49.242971
          ],
          [
            -123.013605,
            49.243015
          ],
          [
            -123.015846,
            49.243028
          ],
          [
            -123.017116,
            49.243036
          ],
          [
            -123.018875,
            49.243029
          ],
          [
            -123.019005,
            49.242995
          ],
          [
            -123.019817,
            49.242999
          ],
          [
            -123.019816,
            49.243642
          ],
          [
            -123.019806,
            49.244015
          ],
          [
            -123.019803,
            49.244413
          ],
          [
            -123.019801,
            49.244851
          ],
          [
            -123.019802,
            49.245218
          ],
          [
            -123.019802,
            49.245279
          ],
          [
            -123.019812,
            49.245436
          ],
          [
            -123.019829,
            49.245656
          ],
          [
            -123.019851,
            49.246103
          ],
          [
            -123.019846,
            49.246558
          ],
          [
            -123.019844,
            49.246891
          ],
          [
            -123.019843,
            49.247012
          ],
          [
            -123.01984,
            49.247461
          ],
          [
            -123.019836,
            49.247913
          ],
          [
            -123.019831,
            49.248367
          ],
          [
            -123.019829,
            49.248818
          ],
          [
            -123.020992,
            49.248825
          ],
          [
            -123.022866,
            49.248834
          ],
          [
            -123.023268,
            49.248839
          ],
          [
            -123.023434,
            49.248869
          ],
          [
            -123.023554,
            49.248956
          ],
          [
            -123.023555,
            49.249739
          ],
          [
            -123.023553,
            49.249941
          ],
          [
            -123.02363,
            49.250084
          ],
          [
            -123.023643,
            49.250436
          ],
          [
            -123.023709,
            49.250546
          ],
          [
            -123.023808,
            49.250638
          ],
          [
            -123.02459,
            49.250645
          ],
          [
            -123.025361,
            49.25065
          ],
          [
            -123.026252,
            49.250656
          ],
          [
            -123.028536,
            49.250637
          ],
          [
            -123.029975,
            49.250619
          ],
          [
            -123.031084,
            49.250609
          ],
          [
            -123.033094,
            49.250603
          ],
          [
            -123.033409,
            49.2506
          ],
          [
            -123.033758,
            49.250602
          ],
          [
            -123.033868,
            49.250603
          ],
          [
            -123.034573,
            49.250606
          ],
          [
            -123.03654,
            49.250603
          ],
          [
            -123.037144,
            49.250603
          ],
          [
            -123.038465,
            49.250603
          ],
          [
            -123.039071,
            49.250608
          ],
          [
            -123.039683,
            49.250613
          ],
          [
            -123.040988,
            49.250608
          ],
          [
            -123.041609,
            49.250614
          ],
          [
            -123.042639,
            49.250621
          ],
          [
            -123.043254,
            49.250624
          ],
          [
            -123.043403,
            49.250625
          ],
          [
            -123.044175,
            49.250633
          ],
          [
            -123.044364,
            49.250676
          ],
          [
            -123.044692,
            49.250679
          ],
          [
            -123.044939,
            49.250682
          ],
          [
            -123.045096,
            49.250684
          ],
          [
            -123.047104,
            49.250695
          ],
          [
            -123.049031,
            49.250708
          ],
          [
            -123.049638,
            49.250701
          ],
          [
            -123.050235,
            49.250709
          ],
          [
            -123.052246,
            49.250708
          ],
          [
            -123.054588,
            49.250697
          ],
          [
            -123.05589,
            49.250694
          ],
          [
            -123.056633,
            49.250693
          ],
          [
            -123.056633,
            49.251516
          ],
          [
            -123.056628,
            49.252346
          ],
          [
            -123.056628,
            49.252779
          ],
          [
            -123.056624,
            49.253472
          ],
          [
            -123.056618,
            49.255096
          ],
          [
            -123.056617,
            49.256428
          ],
          [
            -123.056614,
            49.256749
          ],
          [
            -123.056627,
            49.257237
          ],
          [
            -123.056633,
            49.257733
          ],
          [
            -123.056628,
            49.257807
          ],
          [
            -123.057439,
            49.258022
          ],
          [
            -123.058079,
            49.258236
          ],
          [
            -123.058249,
            49.258258
          ],
          [
            -123.060051,
            49.259023
          ],
          [
            -123.060315,
            49.259137
          ],
          [
            -123.060713,
            49.259292
          ],
          [
            -123.061123,
            49.259404
          ],
          [
            -123.061528,
            49.25947
          ],
          [
            -123.06185,
            49.259498
          ],
          [
            -123.062094,
            49.259505
          ],
          [
            -123.064021,
            49.259518
          ],
          [
            -123.065313,
            49.259531
          ],
          [
            -123.065964,
            49.259536
          ],
          [
            -123.066618,
            49.259541
          ],
          [
            -123.069169,
            49.25957
          ],
          [
            -123.069821,
            49.25957
          ],
          [
            -123.070424,
            49.259573
          ],
          [
            -123.073703,
            49.259598
          ],
          [
            -123.074151,
            49.259601
          ],
          [
            -123.074294,
            49.259602
          ],
          [
            -123.074386,
            49.259602
          ],
          [
            -123.076999,
            49.259622
          ],
          [
            -123.077422,
            49.259625
          ],
          [
            -123.077609,
            49.259627
          ],
          [
            -123.078569,
            49.259629
          ],
          [
            -123.081434,
            49.259659
          ],
          [
            -123.083373,
            49.259673
          ],
          [
            -123.085302,
            49.259688
          ],
          [
            -123.087242,
            49.259708
          ],
          [
            -123.089181,
            49.259717
          ],
          [
            -123.091114,
            49.259734
          ],
          [
            -123.093038,
            49.259753
          ],
          [
            -123.094974,
            49.259763
          ],
          [
            -123.095655,
            49.259776
          ],
          [
            -123.096002,
            49.259788
          ],
          [
            -123.096451,
            49.259854
          ],
          [
            -123.097604,
            49.260981
          ],
          [
            -123.097657,
            49.261021
          ],
          [
            -123.097799,
            49.261084
          ],
          [
            -123.098143,
            49.261452
          ],
          [
            -123.098274,
            49.261583
          ],
          [
            -123.098518,
            49.26183
          ],
          [
            -123.098679,
            49.26199
          ],
          [
            -123.099167,
            49.262479
          ],
          [
            -123.099511,
            49.262864
          ],
          [
            -123.099513,
            49.262968
          ],
          [
            -123.100107,
            49.263634
          ],
          [
            -123.100559,
            49.264152
          ],
          [
            -123.100638,
            49.264189
          ],
          [
            -123.100818,
            49.264411
          ],
          [
            -123.100965,
            49.264614
          ],
          [
            -123.101453,
            49.264621
          ],
          [
            -123.101696,
            49.264615
          ],
          [
            -123.102261,
            49.264624
          ],
          [
            -123.102906,
            49.264637
          ],
          [
            -123.104171,
            49.264656
          ],
          [
            -123.104827,
            49.26467
          ],
          [
            -123.10564,
            49.264685
          ],
          [
            -123.106121,
            49.264694
          ],
          [
            -123.106773,
            49.264708
          ],
          [
            -123.10797,
            49.264728
          ],
          [
            -123.108235,
            49.264733
          ],
          [
            -123.108828,
            49.264743
          ],
          [
            -123.109159,
            49.264749
          ],
          [
            -123.109452,
            49.264753
          ],
          [
            -123.110902,
            49.264782
          ],
          [
            -123.112858,
            49.264823
          ],
          [
            -123.113415,
            49.264834
          ],
          [
            -123.113477,
            49.264837
          ],
          [
            -123.113884,
            49.264848
          ],
          [
            -123.114545,
            49.264888
          ],
          [
            -123.114721,
            49.264918
          ],
          [
            -123.114713,
            49.265365
          ],
          [
            -123.114738,
            49.266018
          ],
          [
            -123.114885,
            49.269516
          ],
          [
            -123.114855,
            49.269813
          ],
          [
            -123.114725,
            49.272852
          ],
          [
            -123.114686,
            49.27356
          ],
          [
            -123.114641,
            49.274598
          ],
          [
            -123.11462,
            49.274913
          ],
          [
            -123.11461,
            49.275197
          ],
          [
            -123.114612,
            49.275257
          ],
          [
            -123.114657,
            49.275534
          ],
          [
            -123.114756,
            49.275779
          ],
          [
            -123.114956,
            49.276039
          ],
          [
            -123.115208,
            49.276265
          ],
          [
            -123.115593,
            49.276517
          ],
          [
            -123.115362,
            49.276669
          ],
          [
            -123.11522,
            49.276763
          ],
          [
            -123.114452,
            49.277274
          ],
          [
            -123.113989,
            49.277581
          ],
          [
            -123.1145,
            49.277906
          ],
          [
            -123.114959,
            49.278211
          ],
          [
            -123.115489,
            49.278551
          ],
          [
            -123.115928,
            49.278838
          ],
          [
            -123.116431,
            49.279158
          ],
          [
            -123.116915,
            49.279467
          ],
          [
            -123.1174,
            49.27978
          ],
          [
            -123.117913,
            49.280115
          ],
          [
            -123.118373,
            49.280408
          ],
          [
            -123.11885,
            49.28071
          ],
          [
            -123.118363,
            49.281037
          ],
          [
            -123.118257,
            49.281108
          ],
          [
            -123.117134,
            49.281856
          ],
          [
            -123.118136,
            49.282493
          ]
        ]
      }
    },
    {
      "bbox": [
        -123.11885,
        49.200192,
        -122.912485,
        49.282493
      ],
      "type": "Feature",
      "properties": {
        "way_points": [
          0,
          432
        ],
        "summary": {
          "distance": 21461.1,
          "duration": 2356.6
        }
      },
      "geometry": {
        "type": "LineString",
        "coordinates": [
          [
            -122.912485,
            49.200761
          ],
          [
            -122.912696,
            49.200641
          ],
          [
            -122.912799,
            49.200586
          ],
          [
            -122.913037,
            49.200507
          ],
          [
            -122.913751,
            49.200369
          ],
          [
            -122.914601,
            49.200249
          ],
          [
            -122.915489,
            49.200192
          ],
          [
            -122.916629,
            49.200192
          ],
          [
            -122.917875,
            49.200298
          ],
          [
            -122.918059,
            49.200276
          ],
          [
            -122.918234,
            49.200289
          ],
          [
            -122.919223,
            49.200345
          ],
          [
            -122.920329,
            49.200414
          ],
          [
            -122.920563,
            49.200436
          ],
          [
            -122.921216,
            49.200531
          ],
          [
            -122.921315,
            49.200547
          ],
          [
            -122.921818,
            49.200625
          ],
          [
            -122.922322,
            49.200704
          ],
          [
            -122.922241,
            49.200993
          ],
          [
            -122.922259,
            49.201139
          ],
          [
            -122.922384,
            49.201284
          ],
          [
            -122.922623,
            49.201478
          ],
          [
            -122.922864,
            49.201659
          ],
          [
            -122.923062,
            49.201812
          ],
          [
            -122.92337,
            49.202035
          ],
          [
            -122.923871,
            49.202347
          ],
          [
            -122.924413,
            49.202744
          ],
          [
            -122.924937,
            49.203183
          ],
          [
            -122.925121,
            49.203328
          ],
          [
            -122.925734,
            49.203811
          ],
          [
            -122.926015,
            49.204033
          ],
          [
            -122.926867,
            49.204705
          ],
          [
            -122.927369,
            49.2051
          ],
          [
            -122.927852,
            49.205481
          ],
          [
            -122.928331,
            49.205861
          ],
          [
            -122.928814,
            49.206245
          ],
          [
            -122.929297,
            49.206632
          ],
          [
            -122.92963,
            49.206898
          ],
          [
            -122.930551,
            49.207636
          ],
          [
            -122.93057,
            49.207651
          ],
          [
            -122.930916,
            49.207929
          ],
          [
            -122.931346,
            49.208274
          ],
          [
            -122.932178,
            49.208943
          ],
          [
            -122.932258,
            49.209008
          ],
          [
            -122.932689,
            49.209354
          ],
          [
            -122.933164,
            49.209736
          ],
          [
            -122.93366,
            49.210102
          ],
          [
            -122.934151,
            49.2105
          ],
          [
            -122.934628,
            49.210868
          ],
          [
            -122.935076,
            49.21123
          ],
          [
            -122.935536,
            49.211592
          ],
          [
            -122.936005,
            49.211965
          ],
          [
            -122.936449,
            49.212325
          ],
          [
            -122.936925,
            49.2127
          ],
          [
            -122.937412,
            49.21308
          ],
          [
            -122.937585,
            49.213217
          ],
          [
            -122.93786,
            49.21343
          ],
          [
            -122.938179,
            49.213667
          ],
          [
            -122.938421,
            49.213825
          ],
          [
            -122.938892,
            49.214149
          ],
          [
            -122.939307,
            49.214436
          ],
          [
            -122.939424,
            49.214515
          ],
          [
            -122.939898,
            49.214845
          ],
          [
            -122.940193,
            49.215039
          ],
          [
            -122.94111,
            49.215611
          ],
          [
            -122.941243,
            49.215691
          ],
          [
            -122.941722,
            49.21596
          ],
          [
            -122.9428,
            49.216515
          ],
          [
            -122.943309,
            49.21675
          ],
          [
            -122.943594,
            49.216864
          ],
          [
            -122.943948,
            49.216973
          ],
          [
            -122.94467,
            49.217147
          ],
          [
            -122.945635,
            49.21737
          ],
          [
            -122.945847,
            49.217432
          ],
          [
            -122.947249,
            49.217846
          ],
          [
            -122.947904,
            49.217997
          ],
          [
            -122.94849,
            49.218096
          ],
          [
            -122.948943,
            49.218165
          ],
          [
            -122.949094,
            49.218232
          ],
          [
            -122.949293,
            49.218253
          ],
          [
            -122.949771,
            49.2183
          ],
          [
            -122.95051,
            49.218331
          ],
          [
            -122.951006,
            49.218345
          ],
          [
            -122.951438,
            49.218368
          ],
          [
            -122.951592,
            49.218376
          ],
          [
            -122.952724,
            49.218429
          ],
          [
            -122.952717,
            49.21886
          ],
          [
            -122.952724,
            49.219301
          ],
          [
            -122.952726,
            49.219369
          ],
          [
            -122.952722,
            49.219747
          ],
          [
            -122.95272,
            49.220189
          ],
          [
            -122.95272,
            49.220211
          ],
          [
            -122.952731,
            49.220337
          ],
          [
            -122.952766,
            49.220404
          ],
          [
            -122.953009,
            49.220612
          ],
          [
            -122.953123,
            49.220701
          ],
          [
            -122.953717,
            49.22118
          ],
          [
            -122.953865,
            49.2213
          ],
          [
            -122.954343,
            49.22168
          ],
          [
            -122.954876,
            49.222099
          ],
          [
            -122.955462,
            49.222575
          ],
          [
            -122.956049,
            49.223027
          ],
          [
            -122.956702,
            49.223564
          ],
          [
            -122.957148,
            49.223987
          ],
          [
            -122.957581,
            49.223764
          ],
          [
            -122.958134,
            49.223463
          ],
          [
            -122.959065,
            49.222982
          ],
          [
            -122.959775,
            49.222607
          ],
          [
            -122.960639,
            49.222156
          ],
          [
            -122.960963,
            49.222002
          ],
          [
            -122.961033,
            49.221983
          ],
          [
            -122.961296,
            49.221955
          ],
          [
            -122.961795,
            49.221949
          ],
          [
            -122.962553,
            49.221948
          ],
          [
            -122.964055,
            49.221942
          ],
          [
            -122.96478,
            49.221943
          ],
          [
            -122.965443,
            49.221939
          ],
          [
            -122.965518,
            49.22194
          ],
          [
            -122.966295,
            49.221936
          ],
          [
            -122.967038,
            49.221937
          ],
          [
            -122.967814,
            49.221937
          ],
          [
            -122.970811,
            49.221931
          ],
          [
            -122.971256,
            49.221934
          ],
          [
            -122.971967,
            49.221977
          ],
          [
            -122.972463,
            49.222013
          ],
          [
            -122.973366,
            49.22202
          ],
          [
            -122.975121,
            49.222017
          ],
          [
            -122.975658,
            49.222017
          ],
          [
            -122.976341,
            49.222018
          ],
          [
            -122.977148,
            49.22202
          ],
          [
            -122.978652,
            49.222009
          ],
          [
            -122.978836,
            49.222
          ],
          [
            -122.979395,
            49.221977
          ],
          [
            -122.979617,
            49.221968
          ],
          [
            -122.980122,
            49.221947
          ],
          [
            -122.98024,
            49.221941
          ],
          [
            -122.980346,
            49.221937
          ],
          [
            -122.980507,
            49.221934
          ],
          [
            -122.980951,
            49.221925
          ],
          [
            -122.981416,
            49.221926
          ],
          [
            -122.981649,
            49.221926
          ],
          [
            -122.982357,
            49.221928
          ],
          [
            -122.982445,
            49.221928
          ],
          [
            -122.983089,
            49.221929
          ],
          [
            -122.984976,
            49.221907
          ],
          [
            -122.986024,
            49.221909
          ],
          [
            -122.986159,
            49.221909
          ],
          [
            -122.986608,
            49.22191
          ],
          [
            -122.987058,
            49.221911
          ],
          [
            -122.987967,
            49.221916
          ],
          [
            -122.988741,
            49.221938
          ],
          [
            -122.989148,
            49.22194
          ],
          [
            -122.989217,
            49.22194
          ],
          [
            -122.989616,
            49.221943
          ],
          [
            -122.989936,
            49.221944
          ],
          [
            -122.990311,
            49.221944
          ],
          [
            -122.990661,
            49.221944
          ],
          [
            -122.990952,
            49.221945
          ],
          [
            -122.99157,
            49.221943
          ],
          [
            -122.992815,
            49.221943
          ],
          [
            -122.993514,
            49.221943
          ],
          [
            -122.994194,
            49.221944
          ],
          [
            -122.994802,
            49.221944
          ],
          [
            -122.995163,
            49.221944
          ],
          [
            -122.995763,
            49.221944
          ],
          [
            -122.995889,
            49.221945
          ],
          [
            -122.99619,
            49.221945
          ],
          [
            -122.996743,
            49.221945
          ],
          [
            -122.99705,
            49.221944
          ],
          [
            -122.997122,
            49.221944
          ],
          [
            -122.997171,
            49.221944
          ],
          [
            -122.99729,
            49.221943
          ],
          [
            -122.997397,
            49.221944
          ],
          [
            -122.997646,
            49.221944
          ],
          [
            -122.997893,
            49.221944
          ],
          [
            -122.998311,
            49.221944
          ],
          [
            -122.998626,
            49.221944
          ],
          [
            -122.998805,
            49.221944
          ],
          [
            -122.999546,
            49.221944
          ],
          [
            -123.000202,
            49.221943
          ],
          [
            -123.000314,
            49.221944
          ],
          [
            -123.000475,
            49.221945
          ],
          [
            -123.001421,
            49.221942
          ],
          [
            -123.001857,
            49.221943
          ],
          [
            -123.001987,
            49.221944
          ],
          [
            -123.002463,
            49.221945
          ],
          [
            -123.002697,
            49.221943
          ],
          [
            -123.003169,
            49.221943
          ],
          [
            -123.003458,
            49.221943
          ],
          [
            -123.003817,
            49.221943
          ],
          [
            -123.004108,
            49.221943
          ],
          [
            -123.005014,
            49.221944
          ],
          [
            -123.005921,
            49.221946
          ],
          [
            -123.007712,
            49.221947
          ],
          [
            -123.008072,
            49.221946
          ],
          [
            -123.008778,
            49.221942
          ],
          [
            -123.008992,
            49.221942
          ],
          [
            -123.009995,
            49.221949
          ],
          [
            -123.010875,
            49.221946
          ],
          [
            -123.011789,
            49.221949
          ],
          [
            -123.012594,
            49.22195
          ],
          [
            -123.013431,
            49.22195
          ],
          [
            -123.016186,
            49.22195
          ],
          [
            -123.018078,
            49.221949
          ],
          [
            -123.019711,
            49.221947
          ],
          [
            -123.01997,
            49.221986
          ],
          [
            -123.020647,
            49.222009
          ],
          [
            -123.020949,
            49.222018
          ],
          [
            -123.022198,
            49.222022
          ],
          [
            -123.023183,
            49.222011
          ],
          [
            -123.023601,
            49.222007
          ],
          [
            -123.023778,
            49.221974
          ],
          [
            -123.024473,
            49.221991
          ],
          [
            -123.024958,
            49.222034
          ],
          [
            -123.025383,
            49.222091
          ],
          [
            -123.025767,
            49.222167
          ],
          [
            -123.026161,
            49.222278
          ],
          [
            -123.02654,
            49.222404
          ],
          [
            -123.027038,
            49.222602
          ],
          [
            -123.027418,
            49.222806
          ],
          [
            -123.028165,
            49.223255
          ],
          [
            -123.029058,
            49.223802
          ],
          [
            -123.02934,
            49.223962
          ],
          [
            -123.029581,
            49.224074
          ],
          [
            -123.030118,
            49.224287
          ],
          [
            -123.030519,
            49.224409
          ],
          [
            -123.030876,
            49.224494
          ],
          [
            -123.031054,
            49.224531
          ],
          [
            -123.031738,
            49.22463
          ],
          [
            -123.032281,
            49.224663
          ],
          [
            -123.032933,
            49.224672
          ],
          [
            -123.033712,
            49.224681
          ],
          [
            -123.034434,
            49.22469
          ],
          [
            -123.035182,
            49.224698
          ],
          [
            -123.035893,
            49.224707
          ],
          [
            -123.036633,
            49.224716
          ],
          [
            -123.037315,
            49.22472
          ],
          [
            -123.038835,
            49.224732
          ],
          [
            -123.040252,
            49.224733
          ],
          [
            -123.040403,
            49.224734
          ],
          [
            -123.040715,
            49.224737
          ],
          [
            -123.041054,
            49.22474
          ],
          [
            -123.04196,
            49.224744
          ],
          [
            -123.042155,
            49.224745
          ],
          [
            -123.042284,
            49.224778
          ],
          [
            -123.042618,
            49.224777
          ],
          [
            -123.042734,
            49.224745
          ],
          [
            -123.042947,
            49.224746
          ],
          [
            -123.04343,
            49.224746
          ],
          [
            -123.044164,
            49.224746
          ],
          [
            -123.045601,
            49.224744
          ],
          [
            -123.045708,
            49.224744
          ],
          [
            -123.045807,
            49.224744
          ],
          [
            -123.047266,
            49.224758
          ],
          [
            -123.048795,
            49.224772
          ],
          [
            -123.050341,
            49.224792
          ],
          [
            -123.05118,
            49.224798
          ],
          [
            -123.052401,
            49.224807
          ],
          [
            -123.053069,
            49.224811
          ],
          [
            -123.053251,
            49.224813
          ],
          [
            -123.053771,
            49.224816
          ],
          [
            -123.054188,
            49.224819
          ],
          [
            -123.054462,
            49.224822
          ],
          [
            -123.054753,
            49.224825
          ],
          [
            -123.05475,
            49.225012
          ],
          [
            -123.05474,
            49.225373
          ],
          [
            -123.054737,
            49.225471
          ],
          [
            -123.054727,
            49.225947
          ],
          [
            -123.054713,
            49.226358
          ],
          [
            -123.054708,
            49.226773
          ],
          [
            -123.054697,
            49.227165
          ],
          [
            -123.054684,
            49.227578
          ],
          [
            -123.054671,
            49.228023
          ],
          [
            -123.054662,
            49.228483
          ],
          [
            -123.05467,
            49.22864
          ],
          [
            -123.054738,
            49.228926
          ],
          [
            -123.054814,
            49.229118
          ],
          [
            -123.054964,
            49.229388
          ],
          [
            -123.055108,
            49.229708
          ],
          [
            -123.05517,
            49.229937
          ],
          [
            -123.055194,
            49.230142
          ],
          [
            -123.055209,
            49.230873
          ],
          [
            -123.055239,
            49.231793
          ],
          [
            -123.055246,
            49.232108
          ],
          [
            -123.055302,
            49.232464
          ],
          [
            -123.05541,
            49.232836
          ],
          [
            -123.055356,
            49.232916
          ],
          [
            -123.055422,
            49.23337
          ],
          [
            -123.055439,
            49.233813
          ],
          [
            -123.055499,
            49.233871
          ],
          [
            -123.055496,
            49.234369
          ],
          [
            -123.055493,
            49.23487
          ],
          [
            -123.055487,
            49.235377
          ],
          [
            -123.05548,
            49.235884
          ],
          [
            -123.055468,
            49.237392
          ],
          [
            -123.055463,
            49.238895
          ],
          [
            -123.055465,
            49.23933
          ],
          [
            -123.055451,
            49.239758
          ],
          [
            -123.056578,
            49.239771
          ],
          [
            -123.056845,
            49.239772
          ],
          [
            -123.05873,
            49.239782
          ],
          [
            -123.059556,
            49.239786
          ],
          [
            -123.062894,
            49.239801
          ],
          [
            -123.064153,
            49.239811
          ],
          [
            -123.064761,
            49.23993
          ],
          [
            -123.06504,
            49.240009
          ],
          [
            -123.065341,
            49.240076
          ],
          [
            -123.065336,
            49.24038
          ],
          [
            -123.065328,
            49.240687
          ],
          [
            -123.065304,
            49.24136
          ],
          [
            -123.065298,
            49.241523
          ],
          [
            -123.065256,
            49.242835
          ],
          [
            -123.065217,
            49.244031
          ],
          [
            -123.065202,
            49.244555
          ],
          [
            -123.065195,
            49.244765
          ],
          [
            -123.06518,
            49.245108
          ],
          [
            -123.065178,
            49.245259
          ],
          [
            -123.065903,
            49.245584
          ],
          [
            -123.066532,
            49.245869
          ],
          [
            -123.067109,
            49.246133
          ],
          [
            -123.067292,
            49.246159
          ],
          [
            -123.067858,
            49.246414
          ],
          [
            -123.068851,
            49.246875
          ],
          [
            -123.069943,
            49.24738
          ],
          [
            -123.071305,
            49.248014
          ],
          [
            -123.071625,
            49.248159
          ],
          [
            -123.071685,
            49.248261
          ],
          [
            -123.072146,
            49.248489
          ],
          [
            -123.07336,
            49.249028
          ],
          [
            -123.075236,
            49.249809
          ],
          [
            -123.075535,
            49.249931
          ],
          [
            -123.075834,
            49.250052
          ],
          [
            -123.075986,
            49.25013
          ],
          [
            -123.076147,
            49.250212
          ],
          [
            -123.076719,
            49.250513
          ],
          [
            -123.077805,
            49.25113
          ],
          [
            -123.078199,
            49.251332
          ],
          [
            -123.079904,
            49.25213
          ],
          [
            -123.081808,
            49.253024
          ],
          [
            -123.082178,
            49.253197
          ],
          [
            -123.082506,
            49.25335
          ],
          [
            -123.083708,
            49.25391
          ],
          [
            -123.085622,
            49.254814
          ],
          [
            -123.086057,
            49.255016
          ],
          [
            -123.088937,
            49.256362
          ],
          [
            -123.089625,
            49.256679
          ],
          [
            -123.089752,
            49.256716
          ],
          [
            -123.089892,
            49.256745
          ],
          [
            -123.090438,
            49.256999
          ],
          [
            -123.090507,
            49.257088
          ],
          [
            -123.090791,
            49.257215
          ],
          [
            -123.091177,
            49.257348
          ],
          [
            -123.091461,
            49.257418
          ],
          [
            -123.091766,
            49.257469
          ],
          [
            -123.092459,
            49.257598
          ],
          [
            -123.092786,
            49.257702
          ],
          [
            -123.093165,
            49.257876
          ],
          [
            -123.093957,
            49.25831
          ],
          [
            -123.094418,
            49.258576
          ],
          [
            -123.094643,
            49.258708
          ],
          [
            -123.094859,
            49.258838
          ],
          [
            -123.095093,
            49.258979
          ],
          [
            -123.096042,
            49.259537
          ],
          [
            -123.096451,
            49.259854
          ],
          [
            -123.097604,
            49.260981
          ],
          [
            -123.097657,
            49.261021
          ],
          [
            -123.097799,
            49.261084
          ],
          [
            -123.098143,
            49.261452
          ],
          [
            -123.098274,
            49.261583
          ],
          [
            -123.098518,
            49.26183
          ],
          [
            -123.098679,
            49.26199
          ],
          [
            -123.099167,
            49.262479
          ],
          [
            -123.099511,
            49.262864
          ],
          [
            -123.099513,
            49.262968
          ],
          [
            -123.100107,
            49.263634
          ],
          [
            -123.100559,
            49.264152
          ],
          [
            -123.100638,
            49.264189
          ],
          [
            -123.100818,
            49.264411
          ],
          [
            -123.100965,
            49.264614
          ],
          [
            -123.101453,
            49.264621
          ],
          [
            -123.101696,
            49.264615
          ],
          [
            -123.102261,
            49.264624
          ],
          [
            -123.102906,
            49.264637
          ],
          [
            -123.104171,
            49.264656
          ],
          [
            -123.104827,
            49.26467
          ],
          [
            -123.10564,
            49.264685
          ],
          [
            -123.106121,
            49.264694
          ],
          [
            -123.106773,
            49.264708
          ],
          [
            -123.10797,
            49.264728
          ],
          [
            -123.108235,
            49.264733
          ],
          [
            -123.108828,
            49.264743
          ],
          [
            -123.109159,
            49.264749
          ],
          [
            -123.109452,
            49.264753
          ],
          [
            -123.110902,
            49.264782
          ],
          [
            -123.112858,
            49.264823
          ],
          [
            -123.113415,
            49.264834
          ],
          [
            -123.113477,
            49.264837
          ],
          [
            -123.113884,
            49.264848
          ],
          [
            -123.114545,
            49.264888
          ],
          [
            -123.114721,
            49.264918
          ],
          [
            -123.114713,
            49.265365
          ],
          [
            -123.114738,
            49.266018
          ],
          [
            -123.114885,
            49.269516
          ],
          [
            -123.114855,
            49.269813
          ],
          [
            -123.114725,
            49.272852
          ],
          [
            -123.114686,
            49.27356
          ],
          [
            -123.114641,
            49.274598
          ],
          [
            -123.11462,
            49.274913
          ],
          [
            -123.11461,
            49.275197
          ],
          [
            -123.114612,
            49.275257
          ],
          [
            -123.114657,
            49.275534
          ],
          [
            -123.114756,
            49.275779
          ],
          [
            -123.114956,
            49.276039
          ],
          [
            -123.115208,
            49.276265
          ],
          [
            -123.115593,
            49.276517
          ],
          [
            -123.115362,
            49.276669
          ],
          [
            -123.11522,
            49.276763
          ],
          [
            -123.114452,
            49.277274
          ],
          [
            -123.113989,
            49.277581
          ],
          [
            -123.1145,
            49.277906
          ],
          [
            -123.114959,
            49.278211
          ],
          [
            -123.115489,
            49.278551
          ],
          [
            -123.115928,
            49.278838
          ],
          [
            -123.116431,
            49.279158
          ],
          [
            -123.116915,
            49.279467
          ],
          [
            -123.1174,
            49.27978
          ],
          [
            -123.117913,
            49.280115
          ],
          [
            -123.118373,
            49.280408
          ],
          [
            -123.11885,
            49.28071
          ],
          [
            -123.118363,
            49.281037
          ],
          [
            -123.118257,
            49.281108
          ],
          [
            -123.117134,
            49.281856
          ],
          [
            -123.118136,
            49.282493
          ]
        ]
      }
    }
  ],
  "metadata": {
    "attribution": "openrouteservice.org | OpenStreetMap contributors",
    "service": "routing",
    "timestamp": 1791586191496,
    "query": {
      "coordinates": [
        [
          -122.91260227560997,
          49.20084855801232
        ],
        [
          -123.11813659965992,
          49.28249294135585
        ]
      ],
      "profile": "driving-car",
      "profileName": "driving-car",
      "format": "geojson",
      "units": "m",
      "alternative_routes": {
        "target_count": 3,
        "weight_factor": 1.4,
        "share_factor": 0.6
      }
    },
    "engine": {
      "version": "9.10.0",
      "build_date": "2026-08-13T11:53:14Z",
      "graph_date": "2026-09-21T10:31:27Z",
      "osm_date": "2026-09-13T23:59:59Z"
    }
  }
}
