{
  "type": "FeatureCollection",
  "bbox": [
    -123.151143,
    49.162788,
    -123.117134,
    49.282493
  ],
  "features": [
    {
      "bbox": [
        -123.151143,
        49.162788,
        -123.117134,
        49.282493
      ],
      "type": "Feature",
      "properties": {
        "way_points": [
          0,
          277
        ],
        "summary": {
          "distance": 15449.4,
          "duration": 1715.6
        }
      },
      "geometry": {
        "type": "LineString",
        "coordinates": [
          [
            -123.137418,
            49.162788
          ],
          [
            -123.138746,
            49.162794
          ],
          [
            -123.138991,
            49.162794
          ],
          [
            -123.139479,
            49.162792
          ],
          [
            -123.140169,
            49.16279
          ],
          [
            -123.140153,
            49.163962
          ],
          [
            -123.14015,
            49.164127
          ],
          [
            -123.140172,
            49.164239
          ],
          [
            -123.140271,
            49.16447
          ],
          [
            -123.14039,
            49.16464
          ],
          [
            -123.140734,
            49.16497
          ],
          [
            -123.140908,
            49.165193
          ],
          [
            -123.141047,
            49.165486
          ],
          [
            -123.141112,
            49.165769
          ],
          [
            -123.141116,
            49.165896
          ],
          [
            -123.141042,
            49.16625
          ],
          [
            -123.140952,
            49.166451
          ],
          [
            -123.140727,
            49.166772
          ],
          [
            -123.140527,
            49.166966
          ],
          [
            -123.140428,
            49.167067
          ],
          [
            -123.140305,
            49.167213
          ],
          [
            -123.140215,
            49.16737
          ],
          [
            -123.140162,
            49.167594
          ],
          [
            -123.140154,
            49.167724
          ],
          [
            -123.140155,
            49.168729
          ],
          [
            -123.140155,
            49.169486
          ],
          [
            -123.140151,
            49.169709
          ],
          [
            -123.140151,
            49.17009
          ],
          [
            -123.140149,
            49.170155
          ],
          [
            -123.140146,
            49.170253
          ],
          [
            -123.140144,
            49.170323
          ],
          [
            -123.140144,
            49.170485
          ],
          [
            -123.140139,
            49.170668
          ],
          [
            -123.140138,
            49.170822
          ],
          [
            -123.140139,
            49.17122
          ],
          [
            -123.140149,
            49.171914
          ],
          [
            -123.140207,
            49.172024
          ],
          [
            -123.140213,
            49.172373
          ],
          [
            -123.140211,
            49.17264
          ],
          [
            -123.140211,
            49.17275
          ],
          [
            -123.140212,
            49.173452
          ],
          [
            -123.140207,
            49.173743
          ],
          [
            -123.140203,
            49.173871
          ],
          [
            -123.141238,
            49.173872
          ],
          [
            -123.142262,
            49.173862
          ],
          [
            -123.143238,
            49.173853
          ],
          [
            -123.144127,
            49.173845
          ],
          [
            -123.144709,
            49.173844
          ],
          [
            -123.144877,
            49.173844
          ],
          [
            -123.145493,
            49.173849
          ],
          [
            -123.145213,
            49.17423
          ],
          [
            -123.145104,
            49.174457
          ],
          [
            -123.145043,
            49.174914
          ],
          [
            -123.145052,
            49.175068
          ],
          [
            -123.145112,
            49.175313
          ],
          [
            -123.14521,
            49.17552
          ],
          [
            -123.145514,
            49.175901
          ],
          [
            -123.14572,
            49.176086
          ],
          [
            -123.146411,
            49.176704
          ],
          [
            -123.147253,
            49.177414
          ],
          [
            -123.149806,
            49.179705
          ],
          [
            -123.149811,
            49.17971
          ],
          [
            -123.149867,
            49.179761
          ],
          [
            -123.149952,
            49.179881
          ],
          [
            -123.150095,
            49.180028
          ],
          [
            -123.150376,
            49.180282
          ],
          [
            -123.150951,
            49.180744
          ],
          [
            -123.1511,
            49.181013
          ],
          [
            -123.151133,
            49.181092
          ],
          [
            -123.151143,
            49.181189
          ],
          [
            -123.151123,
            49.181293
          ],
          [
            -123.15096,
            49.181591
          ],
          [
            -123.14988,
            49.182305
          ],
          [
            -123.148802,
            49.182991
          ],
          [
            -123.147491,
            49.183968
          ],
          [
            -123.146735,
            49.184581
          ],
          [
            -123.146111,
            49.185098
          ],
          [
            -123.145375,
            49.185706
          ],
          [
            -123.144979,
            49.186183
          ],
          [
            -123.1449,
            49.186302
          ],
          [
            -123.144185,
            49.187506
          ],
          [
            -123.143738,
            49.188343
          ],
          [
            -123.143586,
            49.188608
          ],
          [
            -123.143372,
            49.188997
          ],
          [
            -123.143119,
            49.189478
          ],
          [
            -123.142729,
            49.190155
          ],
          [
            -123.142476,
            49.190672
          ],
          [
            -123.142368,
            49.190988
          ],
          [
            -123.142345,
            49.191072
          ],
          [
            -123.142219,
            49.191573
          ],
          [
            -123.142203,
            49.192055
          ],
          [
            -123.142197,
            49.192162
          ],
          [
            -123.142196,
            49.192209
          ],
          [
            -123.142156,
            49.192851
          ],
          [
            -123.14209,
            49.193821
          ],
          [
            -123.142012,
            49.19405
          ],
          [
            -123.14188,
            49.194258
          ],
          [
            -123.141658,
            49.19446
          ],
          [
            -123.141401,
            49.194621
          ],
          [
            -123.141069,
            49.194761
          ],
          [
            -123.14078,
            49.194845
          ],
          [
            -123.140006,
            49.195047
          ],
          [
            -123.139635,
            49.195127
          ],
          [
            -123.139137,
            49.195266
          ],
          [
            -123.138652,
            49.195443
          ],
          [
            -123.138198,
            49.195653
          ],
          [
            -123.137933,
            49.195811
          ],
          [
            -123.137593,
            49.196046
          ],
          [
            -123.137174,
            49.196394
          ],
          [
            -123.136918,
            49.196704
          ],
          [
            -123.136743,
            49.196963
          ],
          [
            -123.136624,
            49.197185
          ],
          [
            -123.135298,
            49.200476
          ],
          [
            -123.135213,
            49.200544
          ],
          [
            -123.134928,
            49.20108
          ],
          [
            -123.134562,
            49.201815
          ],
          [
            -123.134476,
            49.202057
          ],
          [
            -123.134452,
            49.20234
          ],
          [
            -123.134507,
            49.202571
          ],
          [
            -123.13459,
            49.20274
          ],
          [
            -123.134651,
            49.20283
          ],
          [
            -123.134855,
            49.20304
          ],
          [
            -123.135129,
            49.203225
          ],
          [
            -123.13543,
            49.203367
          ],
          [
            -123.136367,
            49.203703
          ],
          [
            -123.137607,
            49.204152
          ],
          [
            -123.13837,
            49.204412
          ],
          [
            -123.138541,
            49.204488
          ],
          [
            -123.139656,
            49.204891
          ],
          [
            -123.139929,
            49.205006
          ],
          [
            -123.140167,
            49.205129
          ],
          [
            -123.140392,
            49.205303
          ],
          [
            -123.140513,
            49.205503
          ],
          [
            -123.140573,
            49.205704
          ],
          [
            -123.140644,
            49.205787
          ],
          [
            -123.140635,
            49.206177
          ],
          [
            -123.140601,
            49.207082
          ],
          [
            -123.140591,
            49.207235
          ],
          [
            -123.140587,
            49.207317
          ],
          [
            -123.140538,
            49.207374
          ],
          [
            -123.140498,
            49.207504
          ],
          [
            -123.140466,
            49.20803
          ],
          [
            -123.14046,
            49.208195
          ],
          [
            -123.14045,
            49.208545
          ],
          [
            -123.140435,
            49.209599
          ],
          [
            -123.140454,
            49.209679
          ],
          [
            -123.140508,
            49.209741
          ],
          [
            -123.140501,
            49.209872
          ],
          [
            -123.140493,
            49.210055
          ],
          [
            -123.140487,
            49.210208
          ],
          [
            -123.140478,
            49.21052
          ],
          [
            -123.140468,
            49.210735
          ],
          [
            -123.140462,
            49.210888
          ],
          [
            -123.140452,
            49.211199
          ],
          [
            -123.140448,
            49.211363
          ],
          [
            -123.140425,
            49.212042
          ],
          [
            -123.140419,
            49.21223
          ],
          [
            -123.140419,
            49.212263
          ],
          [
            -123.140408,
            49.212548
          ],
          [
            -123.140387,
            49.213147
          ],
          [
            -123.140368,
            49.213733
          ],
          [
            -123.14036,
            49.214008
          ],
          [
            -123.140326,
            49.214941
          ],
          [
            -123.140322,
            49.215044
          ],
          [
            -123.140293,
            49.215889
          ],
          [
            -123.140258,
            49.216801
          ],
          [
            -123.140239,
            49.21736
          ],
          [
            -123.140204,
            49.218373
          ],
          [
            -123.140201,
            49.218488
          ],
          [
            -123.140169,
            49.219355
          ],
          [
            -123.140146,
            49.219907
          ],
          [
            -123.140109,
            49.220805
          ],
          [
            -123.140074,
            49.221707
          ],
          [
            -123.140038,
            49.222615
          ],
          [
            -123.140001,
            49.223516
          ],
          [
            -123.139979,
            49.22408
          ],
          [
            -123.139896,
            49.226179
          ],
          [
            -123.139864,
            49.226966
          ],
          [
            -123.139828,
            49.227891
          ],
          [
            -123.1398,
            49.228772
          ],
          [
            -123.139766,
            49.229695
          ],
          [
            -123.139738,
            49.230617
          ],
          [
            -123.139674,
            49.232477
          ],
          [
            -123.139648,
            49.233757
          ],
          [
            -123.13964,
            49.234072
          ],
          [
            -123.139636,
            49.234333
          ],
          [
            -123.139626,
            49.234573
          ],
          [
            -123.139618,
            49.234763
          ],
          [
            -123.139613,
            49.234875
          ],
          [
            -123.139591,
            49.235379
          ],
          [
            -123.139553,
            49.236284
          ],
          [
            -123.139517,
            49.237122
          ],
          [
            -123.13948,
            49.237985
          ],
          [
            -123.139477,
            49.238055
          ],
          [
            -123.139475,
            49.238134
          ],
          [
            -123.139448,
            49.239007
          ],
          [
            -123.139412,
            49.239955
          ],
          [
            -123.139381,
            49.240905
          ],
          [
            -123.139349,
            49.241876
          ],
          [
            -123.139316,
            49.242815
          ],
          [
            -123.139287,
            49.24364
          ],
          [
            -123.139237,
            49.245198
          ],
          [
            -123.13923,
            49.245433
          ],
          [
            -123.139198,
            49.246503
          ],
          [
            -123.139166,
            49.247411
          ],
          [
            -123.139137,
            49.248334
          ],
          [
            -123.139105,
            49.249326
          ],
          [
            -123.1391,
            49.249518
          ],
          [
            -123.139073,
            49.250178
          ],
          [
            -123.139051,
            49.250845
          ],
          [
            -123.139027,
            49.251495
          ],
          [
            -123.13901,
            49.251928
          ],
          [
            -123.138962,
            49.253147
          ],
          [
            -123.138912,
            49.254522
          ],
          [
            -123.138909,
            49.254658
          ],
          [
            -123.138878,
            49.255521
          ],
          [
            -123.138864,
            49.255893
          ],
          [
            -123.138844,
            49.256427
          ],
          [
            -123.138841,
            49.256522
          ],
          [
            -123.138827,
            49.25677
          ],
          [
            -123.138822,
            49.257061
          ],
          [
            -123.138786,
            49.258003
          ],
          [
            -123.138768,
            49.258522
          ],
          [
            -123.138758,
            49.258721
          ],
          [
            -123.138751,
            49.258921
          ],
          [
            -123.138741,
            49.259145
          ],
          [
            -123.138715,
            49.25984
          ],
          [
            -123.13871,
            49.260023
          ],
          [
            -123.13868,
            49.260782
          ],
          [
            -123.138677,
            49.26089
          ],
          [
            -123.138645,
            49.261721
          ],
          [
            -123.138612,
            49.262632
          ],
          [
            -123.138592,
            49.26316
          ],
          [
            -123.138577,
            49.263568
          ],
          [
            -123.138542,
            49.264511
          ],
          [
            -123.13851,
            49.265348
          ],
          [
            -123.138475,
            49.266195
          ],
          [
            -123.138458,
            49.266513
          ],
          [
            -123.138386,
            49.26656
          ],
          [
            -123.138387,
            49.266684
          ],
          [
            -123.138379,
            49.266902
          ],
          [
            -123.138348,
            49.267638
          ],
          [
            -123.138315,
            49.268106
          ],
          [
            -123.138302,
            49.268301
          ],
          [
            -123.138341,
            49.268434
          ],
          [
            -123.13827,
            49.26865
          ],
          [
            -123.138171,
            49.26886
          ],
          [
            -123.138059,
            49.269012
          ],
          [
            -123.137852,
            49.269223
          ],
          [
            -123.13761,
            49.26948
          ],
          [
            -123.137294,
            49.269745
          ],
          [
            -123.136385,
            49.270351
          ],
          [
            -123.136295,
            49.270454
          ],
          [
            -123.135085,
            49.27125
          ],
          [
            -123.13097,
            49.273972
          ],
          [
            -123.130747,
            49.274011
          ],
          [
            -123.130424,
            49.274126
          ],
          [
            -123.129987,
            49.274242
          ],
          [
            -123.128206,
            49.274654
          ],
          [
            -123.12804,
            49.274712
          ],
          [
            -123.127853,
            49.274811
          ],
          [
            -123.127443,
            49.275071
          ],
          [
            -123.127071,
            49.275301
          ],
          [
            -123.126805,
            49.275473
          ],
          [
            -123.125226,
            49.276512
          ],
          [
            -123.123634,
            49.277565
          ],
          [
            -123.123049,
            49.277952
          ],
          [
            -123.122876,
            49.278066
          ],
          [
            -123.122038,
            49.278619
          ],
          [
            -123.121259,
            49.279135
          ],
          [
            -123.121144,
            49.279208
          ],
          [
            -123.120447,
            49.279655
          ],
          [
            -123.119284,
            49.280423
          ],
          [
            -123.11885,
            49.28071
          ],
          [
            -123.118363,
            49.281037
          ],
          [
            -123.118257,
            49.281108
          ],
          [
            -123.117134,
            49.281856
          ],
          [
            -123.118136,
            49.282493
          ]
        ]
      }
    },
    {
      "bbox": [
        -123.151143,
        49.162788,
        -123.117134,
        49.282493
      ],
      "type": "Feature",
      "properties": {
        "way_points": [
          0,
          327
        ],
        "summary": {
          "distance": 16020.2,
          "duration": 1771.9
        }
      },
      "geometry": {
        "type": "LineString",
        "coordinates": [
          [
            -123.137418,
            49.162788
          ],
          [
            -123.138746,
            49.162794
          ],
          [
            -123.138991,
            49.162794
          ],
          [
            -123.139479,
            49.162792
          ],
          [
            -123.140169,
            49.16279
          ],
          [
            -123.140153,
            49.163962
          ],
          [
            -123.14015,
            49.164127
          ],
          [
            -123.140172,
            49.164239
          ],
          [
            -123.140271,
            49.16447
          ],
          [
            -123.14039,
            49.16464
          ],
          [
            -123.140734,
            49.16497
          ],
          [
            -123.140908,
            49.165193
          ],
          [
            -123.141047,
            49.165486
          ],
          [
            -123.141112,
            49.165769
          ],
          [
            -123.141116,
            49.165896
          ],
          [
            -123.141042,
            49.16625
          ],
          [
            -123.140952,
            49.166451
          ],
          [
            -123.140727,
            49.166772
          ],
          [
            -123.140527,
            49.166966
          ],
          [
            -123.140428,
            49.167067
          ],
          [
            -123.140305,
            49.167213
          ],
          [
            -123.140215,
            49.16737
          ],
          [
            -123.140162,
            49.167594
          ],
          [
            -123.140154,
            49.167724
          ],
          [
            -123.140155,
            49.168729
          ],
          [
            -123.140155,
            49.169486
          ],
          [
            -123.140151,
            49.169709
          ],
          [
            -123.140151,
            49.17009
          ],
          [
            -123.140149,
            49.170155
          ],
          [
            -123.140146,
            49.170253
          ],
          [
            -123.140144,
            49.170323
          ],
          [
            -123.140144,
            49.170485
          ],
          [
            -123.140139,
            49.170668
          ],
          [
            -123.140138,
            49.170822
          ],
          [
            -123.140139,
            49.17122
          ],
          [
            -123.140149,
            49.171914
          ],
          [
            -123.140207,
            49.172024
          ],
          [
            -123.140213,
            49.172373
          ],
          [
            -123.140211,
            49.17264
          ],
          [
            -123.140211,
            49.17275
          ],
          [
            -123.140212,
            49.173452
          ],
          [
            -123.140207,
            49.173743
          ],
          [
            -123.140203,
            49.173871
          ],
          [
            -123.141238,
            49.173872
          ],
          [
            -123.142262,
            49.173862
          ],
          [
            -123.143238,
            49.173853
          ],
          [
            -123.144127,
            49.173845
          ],
          [
            -123.144709,
            49.173844
          ],
          [
            -123.144877,
            49.173844
          ],
          [
            -123.145493,
            49.173849
          ],
          [
            -123.145213,
            49.17423
          ],
          [
            -123.145104,
            49.174457
          ],
          [
            -123.145043,
            49.174914
          ],
          [
            -123.145052,
            49.175068
          ],
          [
            -123.145112,
            49.175313
          ],
          [
            -123.14521,
            49.17552
          ],
          [
            -123.145514,
            49.175901
          ],
          [
            -123.14572,
            49.176086
          ],
          [
            -123.146411,
            49.176704
          ],
          [
            -123.147253,
            49.177414
          ],
          [
            -123.149806,
            49.179705
          ],
          [
            -123.149811,
            49.17971
          ],
          [
            -123.149867,
            49.179761
          ],
          [
            -123.149952,
            49.179881
          ],
          [
            -123.150095,
            49.180028
          ],
          [
            -123.150376,
            49.180282
          ],
          [
            -123.150951,
            49.180744
          ],
          [
            -123.1511,
            49.181013
          ],
          [
            -123.151133,
            49.181092
          ],
          [
            -123.151143,
            49.181189
          ],
          [
            -123.151123,
            49.181293
          ],
          [
            -123.15096,
            49.181591
          ],
          [
            -123.14988,
            49.182305
          ],
          [
            -123.148802,
            49.182991
          ],
          [
            -123.147491,
            49.183968
          ],
          [
            -123.146735,
            49.184581
          ],
          [
            -123.146111,
            49.185098
          ],
          [
            -123.145375,
            49.185706
          ],
          [
            -123.144979,
            49.186183
          ],
          [
            -123.1449,
            49.186302
          ],
          [
            -123.144185,
            49.187506
          ],
          [
            -123.143738,
            49.188343
          ],
          [
            -123.143586,
            49.188608
          ],
          [
            -123.143372,
            49.188997
          ],
          [
            -123.143119,
            49.189478
          ],
          [
            -123.142729,
            49.190155
          ],
          [
            -123.142476,
            49.190672
          ],
          [
            -123.142368,
            49.190988
          ],
          [
            -123.142345,
            49.191072
          ],
          [
            -123.142219,
            49.191573
          ],
          [
            -123.142203,
            49.192055
          ],
          [
            -123.142197,
            49.192162
          ],
          [
            -123.142196,
            49.192209
          ],
          [
            -123.142156,
            49.192851
          ],
          [
            -123.14209,
            49.193821
          ],
          [
            -123.142012,
            49.19405
          ],
          [
            -123.14188,
            49.194258
          ],
          [
            -123.141658,
            49.19446
          ],
          [
            -123.141401,
            49.194621
          ],
          [
            -123.141069,
            49.194761
          ],
          [
            -123.14078,
            49.194845
          ],
          [
            -123.140006,
            49.195047
          ],
          [
            -123.139635,
            49.195127
          ],
          [
            -123.139137,
            49.195266
          ],
          [
            -123.138652,
            49.195443
          ],
          [
            -123.138198,
            49.195653
          ],
          [
            -123.137933,
            49.195811
          ],
          [
            -123.137593,
            49.196046
          ],
          [
            -123.137174,
            49.196394
          ],
          [
            -123.136918,
            49.196704
          ],
          [
            -123.136743,
            49.196963
          ],
          [
            -123.136624,
            49.197185
          ],
          [
            -123.135298,
            49.200476
          ],
          [
            -123.134969,
            49.201354
          ],
          [
            -123.134624,
            49.202196
          ],
          [
            -123.134379,
            49.202597
          ],
          [
            -123.134151,
            49.202847
          ],
          [
            -123.133881,
            49.203073
          ],
          [
            -123.133551,
            49.203279
          ],
          [
            -123.132921,
            49.203569
          ],
          [
            -123.131544,
            49.204136
          ],
          [
            -123.131079,
            49.204321
          ],
          [
            -123.130896,
            49.204354
          ],
          [
            -123.130402,
            49.204551
          ],
          [
            -123.129338,
            49.205004
          ],
          [
            -123.129237,
            49.20505
          ],
          [
            -123.128971,
            49.205161
          ],
          [
            -123.128594,
            49.205316
          ],
          [
            -123.128491,
            49.205359
          ],
          [
            -123.128436,
            49.205495
          ],
          [
            -123.128407,
            49.205617
          ],
          [
            -123.128415,
            49.20568
          ],
          [
            -123.128551,
            49.205894
          ],
          [
            -123.128642,
            49.205984
          ],
          [
            -123.128774,
            49.206068
          ],
          [
            -123.128867,
            49.206105
          ],
          [
            -123.129102,
            49.206157
          ],
          [
            -123.129376,
            49.206155
          ],
          [
            -123.129784,
            49.206054
          ],
          [
            -123.129935,
            49.206065
          ],
          [
            -123.130013,
            49.206099
          ],
          [
            -123.130069,
            49.206156
          ],
          [
            -123.130196,
            49.206481
          ],
          [
            -123.130202,
            49.206565
          ],
          [
            -123.130294,
            49.206692
          ],
          [
            -123.130296,
            49.206922
          ],
          [
            -123.130284,
            49.207687
          ],
          [
            -123.130268,
            49.208455
          ],
          [
            -123.130208,
            49.210259
          ],
          [
            -123.130197,
            49.210578
          ],
          [
            -123.130191,
            49.210729
          ],
          [
            -123.130177,
            49.211156
          ],
          [
            -123.130117,
            49.212989
          ],
          [
            -123.130107,
            49.213418
          ],
          [
            -123.130072,
            49.21446
          ],
          [
            -123.130005,
            49.215168
          ],
          [
            -123.129875,
            49.21577
          ],
          [
            -123.129693,
            49.216307
          ],
          [
            -123.129563,
            49.216621
          ],
          [
            -123.129301,
            49.217124
          ],
          [
            -123.129043,
            49.21764
          ],
          [
            -123.128831,
            49.218189
          ],
          [
            -123.1287,
            49.218666
          ],
          [
            -123.128613,
            49.219205
          ],
          [
            -123.128552,
            49.219818
          ],
          [
            -123.128532,
            49.220415
          ],
          [
            -123.128529,
            49.220512
          ],
          [
            -123.128527,
            49.220574
          ],
          [
            -123.128517,
            49.221547
          ],
          [
            -123.128452,
            49.222812
          ],
          [
            -123.128417,
            49.223922
          ],
          [
            -123.128384,
            49.224803
          ],
          [
            -123.128351,
            49.225699
          ],
          [
            -123.128342,
            49.225977
          ],
          [
            -123.128336,
            49.22613
          ],
          [
            -123.128327,
            49.226349
          ],
          [
            -123.128319,
            49.226563
          ],
          [
            -123.128304,
            49.226876
          ],
          [
            -123.128309,
            49.227249
          ],
          [
            -123.128311,
            49.22749
          ],
          [
            -123.128282,
            49.228402
          ],
          [
            -123.128251,
            49.229306
          ],
          [
            -123.128219,
            49.230227
          ],
          [
            -123.128157,
            49.232097
          ],
          [
            -123.128142,
            49.232452
          ],
          [
            -123.128133,
            49.232652
          ],
          [
            -123.128069,
            49.232725
          ],
          [
            -123.128059,
            49.232947
          ],
          [
            -123.128056,
            49.233004
          ],
          [
            -123.128111,
            49.233096
          ],
          [
            -123.128084,
            49.233899
          ],
          [
            -123.12808,
            49.234019
          ],
          [
            -123.128075,
            49.234181
          ],
          [
            -123.12807,
            49.234348
          ],
          [
            -123.128067,
            49.234451
          ],
          [
            -123.128058,
            49.234814
          ],
          [
            -123.127997,
            49.234879
          ],
          [
            -123.127991,
            49.235095
          ],
          [
            -123.128033,
            49.235154
          ],
          [
            -123.127995,
            49.236743
          ],
          [
            -123.127968,
            49.237665
          ],
          [
            -123.127919,
            49.238924
          ],
          [
            -123.12791,
            49.239101
          ],
          [
            -123.127902,
            49.239475
          ],
          [
            -123.127844,
            49.240951
          ],
          [
            -123.127833,
            49.241451
          ],
          [
            -123.127802,
            49.242388
          ],
          [
            -123.127746,
            49.243529
          ],
          [
            -123.127731,
            49.243883
          ],
          [
            -123.127646,
            49.243947
          ],
          [
            -123.127606,
            49.244423
          ],
          [
            -123.127604,
            49.244525
          ],
          [
            -123.12759,
            49.24519
          ],
          [
            -123.127608,
            49.245493
          ],
          [
            -123.12768,
            49.245611
          ],
          [
            -123.127674,
            49.24627
          ],
          [
            -123.127672,
            49.246316
          ],
          [
            -123.127672,
            49.24637
          ],
          [
            -123.127636,
            49.247235
          ],
          [
            -123.127607,
            49.24795
          ],
          [
            -123.127522,
            49.248058
          ],
          [
            -123.12751,
            49.248158
          ],
          [
            -123.127495,
            49.248488
          ],
          [
            -123.127555,
            49.248658
          ],
          [
            -123.127546,
            49.248835
          ],
          [
            -123.127541,
            49.248919
          ],
          [
            -123.127537,
            49.248999
          ],
          [
            -123.127531,
            49.249149
          ],
          [
            -123.127526,
            49.24932
          ],
          [
            -123.127515,
            49.249995
          ],
          [
            -123.127503,
            49.250828
          ],
          [
            -123.12749,
            49.251089
          ],
          [
            -123.12748,
            49.251275
          ],
          [
            -123.127478,
            49.251326
          ],
          [
            -123.127461,
            49.251729
          ],
          [
            -123.127429,
            49.252172
          ],
          [
            -123.127412,
            49.25263
          ],
          [
            -123.127392,
            49.253083
          ],
          [
            -123.127375,
            49.253529
          ],
          [
            -123.127363,
            49.253986
          ],
          [
            -123.127351,
            49.254433
          ],
          [
            -123.127716,
            49.254446
          ],
          [
            -123.12806,
            49.25447
          ],
          [
            -123.128613,
            49.254569
          ],
          [
            -123.129019,
            49.254694
          ],
          [
            -123.129209,
            49.25478
          ],
          [
            -123.129451,
            49.254942
          ],
          [
            -123.129579,
            49.255066
          ],
          [
            -123.130098,
            49.255802
          ],
          [
            -123.130366,
            49.256105
          ],
          [
            -123.130709,
            49.256427
          ],
          [
            -123.131092,
            49.256728
          ],
          [
            -123.131235,
            49.256815
          ],
          [
            -123.131814,
            49.257094
          ],
          [
            -123.132528,
            49.257421
          ],
          [
            -123.13309,
            49.25763
          ],
          [
            -123.133569,
            49.257771
          ],
          [
            -123.134,
            49.257858
          ],
          [
            -123.13447,
            49.257905
          ],
          [
            -123.134807,
            49.257923
          ],
          [
            -123.135922,
            49.257945
          ],
          [
            -123.13616,
            49.258049
          ],
          [
            -123.136286,
            49.258251
          ],
          [
            -123.136307,
            49.258367
          ],
          [
            -123.136303,
            49.258425
          ],
          [
            -123.136285,
            49.25888
          ],
          [
            -123.136267,
            49.259343
          ],
          [
            -123.136249,
            49.2598
          ],
          [
            -123.136231,
            49.260249
          ],
          [
            -123.136213,
            49.260745
          ],
          [
            -123.136196,
            49.261215
          ],
          [
            -123.13618,
            49.261679
          ],
          [
            -123.136161,
            49.262138
          ],
          [
            -123.136146,
            49.262595
          ],
          [
            -123.136131,
            49.263059
          ],
          [
            -123.136122,
            49.263265
          ],
          [
            -123.136116,
            49.263512
          ],
          [
            -123.136094,
            49.264032
          ],
          [
            -123.136078,
            49.264471
          ],
          [
            -123.136053,
            49.265317
          ],
          [
            -123.136002,
            49.265389
          ],
          [
            -123.13598,
            49.265902
          ],
          [
            -123.135978,
            49.266158
          ],
          [
            -123.135928,
            49.266222
          ],
          [
            -123.135924,
            49.266413
          ],
          [
            -123.135924,
            49.266447
          ],
          [
            -123.13591,
            49.26695
          ],
          [
            -123.135957,
            49.267191
          ],
          [
            -123.13606,
            49.26736
          ],
          [
            -123.136265,
            49.267537
          ],
          [
            -123.136728,
            49.2678
          ],
          [
            -123.137107,
            49.268007
          ],
          [
            -123.13762,
            49.268314
          ],
          [
            -123.137806,
            49.268481
          ],
          [
            -123.137877,
            49.268574
          ],
          [
            -123.137915,
            49.26867
          ],
          [
            -123.137931,
            49.268852
          ],
          [
            -123.137821,
            49.26915
          ],
          [
            -123.137852,
            49.269223
          ],
          [
            -123.13761,
            49.26948
          ],
          [
            -123.137294,
            49.269745
          ],
          [
            -123.136385,
            49.270351
          ],
          [
            -123.136295,
            49.270454
          ],
          [
            -123.135085,
            49.27125
          ],
          [
            -123.13097,
            49.273972
          ],
          [
            -123.130747,
            49.274011
          ],
          [
            -123.130424,
            49.274126
          ],
          [
            -123.129987,
            49.274242
          ],
          [
            -123.128206,
            49.274654
          ],
          [
            -123.12804,
            49.274712
          ],
          [
            -123.127853,
            49.274811
          ],
          [
            -123.127443,
            49.275071
          ],
          [
            -123.127071,
            49.275301
          ],
          [
            -123.126805,
            49.275473
          ],
          [
            -123.125226,
            49.276512
          ],
          [
            -123.123634,
            49.277565
          ],
          [
            -123.123049,
            49.277952
          ],
          [
            -123.122876,
            49.278066
          ],
          [
            -123.122038,
            49.278619
          ],
          [
            -123.121259,
            49.279135
          ],
          [
            -123.121144,
            49.279208
          ],
          [
            -123.120447,
            49.279655
          ],
          [
            -123.119284,
            49.280423
          ],
          [
            -123.11885,
            49.28071
          ],
          [
            -123.118363,
            49.281037
          ],
          [
            -123.118257,
            49.281108
          ],
          [
            -123.117134,
            49.281856
          ],
          [
            -123.118136,
            49.282493
          ]
        ]
      }
    },
    {
      "bbox": [
        -123.151143,
        49.162788,
        -123.117134,
        49.282493
      ],
      "type": "Feature",
      "properties": {
        "extras": {
          "roadaccessrestrictions": {
            "values": [
              [
                0,
                223,
                0
              ],
              [
                223,
                224,
                32
              ],
              [
                224,
                329,
                0
              ]
            ],
            "summary": [
              {
                "value": 0.0,
                "distance": 16036.6,
                "amount": 99.9
              },
              {
                "value": 32.0,
                "distance": 16.5,
                "amount": 0.1
              }
            ]
          }
        },
        "warnings": [
          {
            "code": 1,
            "message": "There may be restrictions on some roads"
          }
        ],
        "way_points": [
          0,
          329
        ],
        "summary": {
          "distance": 16053.1,
          "duration": 1783.5
        }
      },
      "geometry": {
        "type": "LineString",
        "coordinates": [
          [
            -123.137418,
            49.162788
          ],
          [
            -123.138746,
            49.162794
          ],
          [
            -123.138991,
            49.162794
          ],
          [
            -123.139479,
            49.162792
          ],
          [
            -123.140169,
            49.16279
          ],
          [
            -123.140153,
            49.163962
          ],
          [
            -123.14015,
            49.164127
          ],
          [
            -123.140172,
            49.164239
          ],
          [
            -123.140271,
            49.16447
          ],
          [
            -123.14039,
            49.16464
          ],
          [
            -123.140734,
            49.16497
          ],
          [
            -123.140908,
            49.165193
          ],
          [
            -123.141047,
            49.165486
          ],
          [
            -123.141112,
            49.165769
          ],
          [
            -123.141116,
            49.165896
          ],
          [
            -123.141042,
            49.16625
          ],
          [
            -123.140952,
            49.166451
          ],
          [
            -123.140727,
            49.166772
          ],
          [
            -123.140527,
            49.166966
          ],
          [
            -123.140428,
            49.167067
          ],
          [
            -123.140305,
            49.167213
          ],
          [
            -123.140215,
            49.16737
          ],
          [
            -123.140162,
            49.167594
          ],
          [
            -123.140154,
            49.167724
          ],
          [
            -123.140155,
            49.168729
          ],
          [
            -123.140155,
            49.169486
          ],
          [
            -123.140151,
            49.169709
          ],
          [
            -123.140151,
            49.17009
          ],
          [
            -123.140149,
            49.170155
          ],
          [
            -123.140146,
            49.170253
          ],
          [
            -123.140144,
            49.170323
          ],
          [
            -123.140144,
            49.170485
          ],
          [
            -123.140139,
            49.170668
          ],
          [
            -123.140138,
            49.170822
          ],
          [
            -123.140139,
            49.17122
          ],
          [
            -123.140149,
            49.171914
          ],
          [
            -123.140207,
            49.172024
          ],
          [
            -123.140213,
            49.172373
          ],
          [
            -123.140211,
            49.17264
          ],
          [
            -123.140211,
            49.17275
          ],
          [
            -123.140212,
            49.173452
          ],
          [
            -123.140207,
            49.173743
          ],
          [
            -123.140203,
            49.173871
          ],
          [
            -123.141238,
            49.173872
          ],
          [
            -123.142262,
            49.173862
          ],
          [
            -123.143238,
            49.173853
          ],
          [
            -123.144127,
            49.173845
          ],
          [
            -123.144709,
            49.173844
          ],
          [
            -123.144877,
            49.173844
          ],
          [
            -123.145493,
            49.173849
          ],
          [
            -123.145213,
            49.17423
          ],
          [
            -123.145104,
            49.174457
          ],
          [
            -123.145043,
            49.174914
          ],
          [
            -123.145052,
            49.175068
          ],
          [
            -123.145112,
            49.175313
          ],
          [
            -123.14521,
            49.17552
          ],
          [
            -123.145514,
            49.175901
          ],
          [
            -123.14572,
            49.176086
          ],
          [
            -123.146411,
            49.176704
          ],
          [
            -123.147253,
            49.177414
          ],
          [
            -123.149806,
            49.179705
          ],
          [
            -123.149811,
            49.17971
          ],
          [
            -123.149867,
            49.179761
          ],
          [
            -123.149952,
            49.179881
          ],
          [
            -123.150095,
            49.180028
          ],
          [
            -123.150376,
            49.180282
          ],
          [
            -123.150951,
            49.180744
          ],
          [
            -123.1511,
            49.181013
          ],
          [
            -123.151133,
            49.181092
          ],
          [
            -123.151143,
            49.181189
          ],
          [
            -123.151123,
            49.181293
          ],
          [
            -123.15096,
            49.181591
          ],
          [
            -123.14988,
            49.182305
          ],
          [
            -123.148802,
            49.182991
          ],
          [
            -123.147491,
            49.183968
          ],
          [
            -123.146735,
            49.184581
          ],
          [
            -123.146111,
            49.185098
          ],
          [
            -123.145375,
            49.185706
          ],
          [
            -123.144979,
            49.186183
          ],
          [
            -123.1449,
            49.186302
          ],
          [
            -123.144185,
            49.187506
          ],
          [
            -123.143738,
            49.188343
          ],
          [
            -123.143586,
            49.188608
          ],
          [
            -123.143372,
            49.188997
          ],
          [
            -123.143119,
            49.189478
          ],
          [
            -123.142729,
            49.190155
          ],
          [
            -123.142476,
            49.190672
          ],
          [
            -123.142368,
            49.190988
          ],
          [
            -123.142345,
            49.191072
          ],
          [
            -123.142219,
            49.191573
          ],
          [
            -123.142203,
            49.192055
          ],
          [
            -123.142197,
            49.192162
          ],
          [
            -123.142196,
            49.192209
          ],
          [
            -123.142156,
            49.192851
          ],
          [
            -123.14209,
            49.193821
          ],
          [
            -123.142012,
            49.19405
          ],
          [
            -123.14188,
            49.194258
          ],
          [
            -123.141658,
            49.19446
          ],
          [
            -123.141401,
            49.194621
          ],
          [
            -123.141069,
            49.194761
          ],
          [
            -123.14078,
            49.194845
          ],
          [
            -123.140006,
            49.195047
          ],
          [
            -123.139635,
            49.195127
          ],
          [
            -123.139137,
            49.195266
          ],
          [
            -123.138652,
            49.195443
          ],
          [
            -123.138198,
            49.195653
          ],
          [
            -123.137933,
            49.195811
          ],
          [
            -123.137593,
            49.196046
          ],
          [
            -123.137174,
            49.196394
          ],
          [
            -123.136918,
            49.196704
          ],
          [
            -123.136743,
            49.196963
          ],
          [
            -123.136624,
            49.197185
          ],
          [
            -123.135298,
            49.200476
          ],
          [
            -123.134969,
            49.201354
          ],
          [
            -123.134624,
            49.202196
          ],
          [
            -123.134379,
            49.202597
          ],
          [
            -123.134151,
            49.202847
          ],
          [
            -123.133881,
            49.203073
          ],
          [
            -123.133551,
            49.203279
          ],
          [
            -123.132921,
            49.203569
          ],
          [
            -123.131544,
            49.204136
          ],
          [
            -123.131079,
            49.204321
          ],
          [
            -123.130896,
            49.204354
          ],
          [
            -123.130402,
            49.204551
          ],
          [
            -123.129338,
            49.205004
          ],
          [
            -123.129237,
            49.20505
          ],
          [
            -123.128971,
            49.205161
          ],
          [
            -123.128594,
            49.205316
          ],
          [
            -123.128491,
            49.205359
          ],
          [
            -123.128436,
            49.205495
          ],
          [
            -123.128407,
            49.205617
          ],
          [
            -123.128415,
            49.20568
          ],
          [
            -123.128551,
            49.205894
          ],
          [
            -123.128642,
            49.205984
          ],
          [
            -123.128774,
            49.206068
          ],
          [
            -123.128867,
            49.206105
          ],
          [
            -123.129102,
            49.206157
          ],
          [
            -123.129376,
            49.206155
          ],
          [
            -123.129784,
            49.206054
          ],
          [
            -123.129935,
            49.206065
          ],
          [
            -123.130013,
            49.206099
          ],
          [
            -123.130069,
            49.206156
          ],
          [
            -123.130196,
            49.206481
          ],
          [
            -123.130202,
            49.206565
          ],
          [
            -123.130294,
            49.206692
          ],
          [
            -123.130296,
            49.206922
          ],
          [
            -123.130284,
            49.207687
          ],
          [
            -123.130268,
            49.208455
          ],
          [
            -123.130208,
            49.210259
          ],
          [
            -123.130197,
            49.210578
          ],
          [
            -123.130191,
            49.210729
          ],
          [
            -123.130177,
            49.211156
          ],
          [
            -123.130117,
            49.212989
          ],
          [
            -123.130107,
            49.213418
          ],
          [
            -123.130072,
            49.21446
          ],
          [
            -123.130005,
            49.215168
          ],
          [
            -123.129875,
            49.21577
          ],
          [
            -123.129693,
            49.216307
          ],
          [
            -123.129563,
            49.216621
          ],
          [
            -123.129301,
            49.217124
          ],
          [
            -123.129043,
            49.21764
          ],
          [
            -123.128831,
            49.218189
          ],
          [
            -123.1287,
            49.218666
          ],
          [
            -123.128613,
            49.219205
          ],
          [
            -123.128552,
            49.219818
          ],
          [
            -123.128532,
            49.220415
          ],
          [
            -123.128529,
            49.220512
          ],
          [
            -123.128527,
            49.220574
          ],
          [
            -123.128517,
            49.221547
          ],
          [
            -123.128452,
            49.222812
          ],
          [
            -123.128417,
            49.223922
          ],
          [
            -123.128384,
            49.224803
          ],
          [
            -123.128351,
            49.225699
          ],
          [
            -123.128342,
            49.225977
          ],
          [
            -123.128336,
            49.22613
          ],
          [
            -123.128327,
            49.226349
          ],
          [
            -123.128319,
            49.226563
          ],
          [
            -123.128304,
            49.226876
          ],
          [
            -123.128309,
            49.227249
          ],
          [
            -123.128311,
            49.22749
          ],
          [
            -123.128282,
            49.228402
          ],
          [
            -123.128251,
            49.229306
          ],
          [
            -123.128219,
            49.230227
          ],
          [
            -123.128157,
            49.232097
          ],
          [
            -123.128142,
            49.232452
          ],
          [
            -123.128133,
            49.232652
          ],
          [
            -123.128069,
            49.232725
          ],
          [
            -123.128059,
            49.232947
          ],
          [
            -123.128056,
            49.233004
          ],
          [
            -123.128111,
            49.233096
          ],
          [
            -123.128084,
            49.233899
          ],
          [
            -123.12808,
            49.234019
          ],
          [
            -123.128075,
            49.234181
          ],
          [
            -123.12807,
            49.234348
          ],
          [
            -123.128067,
            49.234451
          ],
          [
            -123.128058,
            49.234814
          ],
          [
            -123.127997,
            49.234879
          ],
          [
            -123.127991,
            49.235095
          ],
          [
            -123.128033,
            49.235154
          ],
          [
            -123.127995,
            49.236743
          ],
          [
            -123.127968,
            49.237665
          ],
          [
            -123.127919,
            49.238924
          ],
          [
            -123.12791,
            49.239101
          ],
          [
            -123.127902,
            49.239475
          ],
          [
            -123.127844,
            49.240951
          ],
          [
            -123.127833,
            49.241451
          ],
          [
            -123.127802,
            49.242388
          ],
          [
            -123.127746,
            49.243529
          ],
          [
            -123.127731,
            49.243883
          ],
          [
            -123.127646,
            49.243947
          ],
          [
            -123.127606,
            49.244423
          ],
          [
            -123.127604,
            49.244525
          ],
          [
            -123.12759,
            49.24519
          ],
          [
            -123.127608,
            49.245493
          ],
          [
            -123.12768,
            49.245611
          ],
          [
            -123.127674,
            49.24627
          ],
          [
            -123.127672,
            49.246316
          ],
          [
            -123.127672,
            49.24637
          ],
          [
            -123.127636,
            49.247235
          ],
          [
            -123.127607,
            49.24795
          ],
          [
            -123.127522,
            49.248058
          ],
          [
            -123.12751,
            49.248158
          ],
          [
            -123.127495,
            49.248488
          ],
          [
            -123.127555,
            49.248658
          ],
          [
            -123.127328,
            49.248654
          ],
          [
            -123.127321,
            49.248845
          ],
          [
            -123.127319,
            49.248917
          ],
          [
            -123.127541,
            49.248919
          ],
          [
            -123.127537,
            49.248999
          ],
          [
            -123.127531,
            49.249149
          ],
          [
            -123.127526,
            49.24932
          ],
          [
            -123.127515,
            49.249995
          ],
          [
            -123.127503,
            49.250828
          ],
          [
            -123.12749,
            49.251089
          ],
          [
            -123.12748,
            49.251275
          ],
          [
            -123.127478,
            49.251326
          ],
          [
            -123.127461,
            49.251729
          ],
          [
            -123.127429,
            49.252172
          ],
          [
            -123.127412,
            49.25263
          ],
          [
            -123.127392,
            49.253083
          ],
          [
            -123.127375,
            49.253529
          ],
          [
            -123.127363,
            49.253986
          ],
          [
            -123.127351,
            49.254433
          ],
          [
            -123.127716,
            49.254446
          ],
          [
            -123.12806,
            49.25447
          ],
          [
            -123.128613,
            49.254569
          ],
          [
            -123.129019,
            49.254694
          ],
          [
            -123.129209,
            49.25478
          ],
          [
            -123.129451,
            49.254942
          ],
          [
            -123.129579,
            49.255066
          ],
          [
            -123.130098,
            49.255802
          ],
          [
            -123.130366,
            49.256105
          ],
          [
            -123.130709,
            49.256427
          ],
          [
            -123.131092,
            49.256728
          ],
          [
            -123.131235,
            49.256815
          ],
          [
            -123.131814,
            49.257094
          ],
          [
            -123.132528,
            49.257421
          ],
          [
            -123.13309,
            49.25763
          ],
          [
            -123.133569,
            49.257771
          ],
          [
            -123.134,
            49.257858
          ],
          [
            -123.13447,
            49.257905
          ],
          [
            -123.134807,
            49.257923
          ],
          [
            -123.135922,
            49.257945
          ],
          [
            -123.13616,
            49.258049
          ],
          [
            -123.136286,
            49.258251
          ],
          [
            -123.136307,
            49.258367
          ],
          [
            -123.136303,
            49.258425
          ],
          [
            -123.136285,
            49.25888
          ],
          [
            -123.136267,
            49.259343
          ],
          [
            -123.136249,
            49.2598
          ],
          [
            -123.136231,
            49.260249
          ],
          [
            -123.136213,
            49.260745
          ],
          [
            -123.136196,
            49.261215
          ],
          [
            -123.13618,
            49.261679
          ],
          [
            -123.136161,
            49.262138
          ],
          [
            -123.136146,
            49.262595
          ],
          [
            -123.136131,
            49.263059
          ],
          [
            -123.136122,
            49.263265
          ],
          [
            -123.136116,
            49.263512
          ],
          [
            -123.136094,
            49.264032
          ],
          [
            -123.136078,
            49.264471
          ],
          [
            -123.136053,
            49.265317
          ],
          [
            -123.136002,
            49.265389
          ],
          [
            -123.13598,
            49.265902
          ],
          [
            -123.135978,
            49.266158
          ],
          [
            -123.135928,
            49.266222
          ],
          [
            -123.135924,
            49.266413
          ],
          [
            -123.135924,
            49.266447
          ],
          [
            -123.13591,
            49.26695
          ],
          [
            -123.135957,
            49.267191
          ],
          [
            -123.13606,
            49.26736
          ],
          [
            -123.136265,
            49.267537
          ],
          [
            -123.136728,
            49.2678
          ],
          [
            -123.137107,
            49.268007
          ],
          [
            -123.13762,
            49.268314
          ],
          [
            -123.137806,
            49.268481
          ],
          [
            -123.137877,
            49.268574
          ],
          [
            -123.137915,
            49.26867
          ],
          [
            -123.137931,
            49.268852
          ],
          [
            -123.137821,
            49.26915
          ],
          [
            -123.137852,
            49.269223
          ],
          [
            -123.13761,
            49.26948
          ],
          [
            -123.137294,
            49.269745
          ],
          [
            -123.136385,
            49.270351
          ],
          [
            -123.136295,
            49.270454
          ],
          [
            -123.135085,
            49.27125
          ],
          [
            -123.13097,
            49.273972
          ],
          [
            -123.130747,
            49.274011
          ],
          [
            -123.130424,
            49.274126
          ],
          [
            -123.129987,
            49.274242
          ],
          [
            -123.128206,
            49.274654
          ],
          [
            -123.12804,
            49.274712
          ],
          [
            -123.127853,
            49.274811
          ],
          [
            -123.127443,
            49.275071
          ],
          [
            -123.127071,
            49.275301
          ],
          [
            -123.126805,
            49.275473
          ],
          [
            -123.125226,
            49.276512
          ],
          [
            -123.123634,
            49.277565
          ],
          [
            -123.123049,
            49.277952
          ],
          [
            -123.122876,
            49.278066
          ],
          [
            -123.122038,
            49.278619
          ],
          [
            -123.121259,
            49.279135
          ],
          [
            -123.121144,
            49.279208
          ],
          [
            -123.120447,
            49.279655
          ],
          [
            -123.119284,
            49.280423
          ],
          [
            -123.11885,
            49.28071
          ],
          [
            -123.118363,
            49.281037
          ],
          [
            -123.118257,
            49.281108
          ],
          [
            -123.117134,
            49.281856
          ],
          [
            -123.118136,
            49.282493
          ]
        ]
      }
    }
  ],
  "metadata": {
    "attribution": "openrouteservice.org | OpenStreetMap contributors",
    "service": "routing",
    "timestamp": 1791586194961,
    "query": {
      "coordinates": [
        [
          -123.1374143064022,
          49.16316819009346
        ],
        [
          -123.11813659965992,
          49.28249294135585
        ]
      ],
      "profile": "driving-car",
      "profileName": "driving-car",
      "format": "geojson",
      "units": "m",
      "alternative_routes": {
        "target_count": 3,
        "weight_factor": 1.4,
        "share_factor": 0.6
      }
    },
    "engine": {
      "version": "9.10.0",
      "build_date": "2026-08-13T11:53:14Z",
      "graph_date": "2026-09-21T10:31:27Z",
      "osm_date": "2026-09-13T23:59:59Z"
    }
  }
}
